SchoolID,SchoolName,SchoolAddress,Lat,Long,TestingStatus,Filename,DateAdded,RetestFileName,RetestDateAdded,RetestFileName2,RetestDateAdded2
400010,ACE TECH HS,"5410 S STATE ST, CHICAGO, IL 60609",41.796122,-87.625849,NO LEAD FOUND,IndividualSchool_AceTechHS_400010.pdf,11/01/2016,,,,
609772,ADDAMS,"10810 S AVENUE H, CHICAGO, IL 60617",41.698739,-87.532976,LEAD FOUND,Individualschool_Addams_609772.pdf,06/27/2016,Retest_Addams_609772.pdf,08/30/2016,,
609773,AGASSIZ,"2851 N SEMINARY AVE, CHICAGO, IL 60657",41.934126,-87.656229,NO LEAD FOUND,Individualschool_Agassiz_609773.pdf,07/22/2016,,,,
610513,AIR FORCE HS,"3630 S WELLS ST, CHICAGO, IL 60609",41.828145,-87.632757,NO LEAD FOUND,IndividualSchool_AirForceHS_610513.pdf,10/31/2016,,,,
609774,ALCOTT,"2625 N ORCHARD ST, CHICAGO, IL 60614",41.92985,-87.646413,NO LEAD FOUND,IndividualSchool_Alcott_609774.pdf,07/08/2016,,,,
610524,ALCOTT HS,"2957 N HOYNE AVE, CHICAGO, IL 60618",41.935795,-87.680562,NO LEAD FOUND,IndividualSchool_AlcottHS_610524.pdf,11/07/2016,,,,
609848,ALDRIDGE,"630 E 131ST ST, CHICAGO, IL 60827",41.657405,-87.606474,NO LEAD FOUND,IndividualSchool_Aldridge_609848.pdf,8/1/16,,,,
609695,AMUNDSEN HS,"5110 N DAMEN AVE, CHICAGO, IL 60625",41.975067,-87.679484,NO LEAD FOUND,IndividualSchool_Amundsen_609695.pdf,10/27/2016,,,,
609951,ARIEL,"1119 E 46TH ST, CHICAGO, IL 60653",41.811173,-87.597503,NO LEAD FOUND,Individualschool_Ariel_609951.pdf,07/22/2016,,,,
609777,ARMOUR,"950 W 33RD PL, CHICAGO, IL 60608",41.833854,-87.650653,NO LEAD FOUND,IndividualSchool_Armour_609777.pdf,07/12/2016,,,,
609779,ARMSTRONG,2110 W GREENLEAF AVENUE CHICAGO IL 60645,42.01015,-87.684442,NO LEAD FOUND,Individualschool_ArmstrongG_609779.pdf,06/15/2016,,,,
610287,ASHBURN,"8300 S ST LOUIS AVE, CHICAGO, IL 60652",41.742351,-87.70961,NO LEAD FOUND,Individualschool_Ashburn_610287.pdf,7/21/16,,,,
610268,ASHE,"8505 S INGLESIDE AVE, CHICAGO, IL 60619",41.740184,-87.601174,NO LEAD FOUND,IndividualSchool_Ashe_610268.pdf,10/25/2016,,,,
609782,AUDUBON,"3500 N HOYNE AVE, CHICAGO, IL 60618",41.945062,-87.681041,LEAD FOUND,Individualschool_Audubon_609782.pdf,07/11/2016,Retest_Audubon_609782.pdf,08/30/2016,,
609786,AVALON PARK,"8045 S KENWOOD AVE, CHICAGO, IL 60619",41.748247,-87.591654,NO LEAD FOUND,Individualschool_AvalonPark_609786.pdf,07/22/2016,,,,
610544,AZUELA,"4707 W MARQUETTE RD, CHICAGO, IL 60629",41.771079,-87.73992,NO LEAD FOUND,IndividualSchool_Azuela_610544.pdf,10/18/16,,,,
609788,BARNARD,"10354 S CHARLES ST, CHICAGO, IL 60643",41.705131,-87.658074,NO LEAD FOUND,Individualschool_Barnard_609788.pdf,07/22/2016,,,,
609789,BARRY,"2828 N KILBOURN AVE, CHICAGO, IL 60641",41.932511,-87.739388,NO LEAD FOUND,IndividualSchool_Barry_609789.pdf,8/1/16,,,,
609790,BARTON,"7650 S WOLCOTT AVE, CHICAGO, IL 60620",41.754194,-87.670927,LEAD FOUND,IndividualSchool_Barton_609790.pdf,07/12/2016,retest_Barton_609790.pdf,09/06/2016,,
609791,BASS,"1140 W 66TH ST, CHICAGO, IL 60621",41.774246,-87.653532,NO LEAD FOUND,IndividualSchool_Bass_609791.pdf,07/12/2016,,,,
609792,BATEMAN,4220 N RICHMOND STREET CHICAGO IL 60618,41.95822,-87.702151,NO LEAD FOUND,Individualschool_Bateman_609792.pdf,06/15/2016,,,,
610083,BEARD,"6445 W STRONG ST, CHICAGO, IL 60656",41.970125,-87.78963,NO LEAD FOUND,Individualschool_Beard_610083.pdf,06/17/2016,,,,
610246,BEASLEY,5255 S STATE STREET CHICAGO IL 60609,41.798465,-87.625692,LEAD FOUND,Individualschool_Beasley_610246.pdf,06/15/2016,retest_Beasley_610246.pdf,09/06/2016,,
609796,BEAUBIEN,"5025 N LARAMIE AVE, CHICAGO, IL 60630",41.972394,-87.757565,LEAD FOUND,Individualschool_beaubien_609796.pdf,8/19/16,retest_beaubien_609796.pdf,9/1/16,,
610237,BEETHOVEN,"25 W 47TH ST, CHICAGO, IL 60609",41.809135,-87.627137,NO LEAD FOUND,Individualschool_Beethoven_610237.pdf,06/28/2016,,,,
609797,BEIDLER,3151 W WALNUT STREET CHICAGO IL 60612,41.885321,-87.705855,LEAD FOUND,Individualschool_Beidler_609797.pdf,06/15/2016,retest_Beidler_609797.pdf,09/06/2016,,
609798,BELDING,"4257 N TRIPP AVE, CHICAGO, IL 60641",41.958938,-87.73402,NO LEAD FOUND,IndividualSchool_Belding_609798.pdf,8/1/16,,,,
609799,BELL,"3730 N OAKLEY AVE, CHICAGO, IL 60618",41.94953,-87.686018,NO LEAD FOUND,IndividualSchool_Bell_609799.pdf,8/1/16,,,,
609922,BELMONT-CRAGIN,"5252 W PALMER ST, CHICAGO, IL 60639",41.92015,-87.756843,NO LEAD FOUND,Individualschool_BelmontCragin_609922.pdf,07/27/16,,,,
609800,BENNETT,"10115 S PRAIRIE AVE, CHICAGO, IL 60628",41.710435,-87.61739,NO LEAD FOUND,Individualschool_Bennett_609800.pdf,7/21/16,,,,
610350,BLACK,"9101 S EUCLID AVE, CHICAGO, IL 60619",41.729692,-87.576643,LEAD FOUND,IndividualSchool_Black_610350.pdf,10/06/2016,,,,
609803,BLAINE,1420 W GRACE STREET CHICAGO IL 60613,41.950781,-87.664968,LEAD FOUND,Individualschool_Blaine_609803.pdf,06/15/2016,,,,
610087,BLAIR,6751 W 63RD PLACE CHICAGO IL 60638,41.776556,-87.790604,LEAD FOUND,Individualschool_Blair_610087.pdf,06/15/2016,retest_Blair_610087.pdf,08/25/2016,,
609698,BOGAN HS,"3939 W 79TH ST, CHICAGO, IL 60652",41.749376,-87.721097,LEAD FOUND,IndividualSchool_Bogan_609698.pdf,10/24/2016,,,,
610238,BOND,"7050 S MAY ST, CHICAGO, IL 60621",41.765361,-87.653018,NO LEAD FOUND,Individualschool_Bond_610238.pdf,07/14/2016,,,,
609804,BOONE,"6710 N WASHTENAW AVE, CHICAGO, IL 60645",42.003412,-87.697463,NO LEAD FOUND,IndividualSchool_Boone_609804.pdf,8/1/16,,,,
609815,BOUCHET,"7355 S JEFFERY BLVD, CHICAGO, IL 60649",41.760847,-87.576075,LEAD FOUND,Individualschool_Bouchet_609815.pdf,06/28/2016,Retest_Bouchet_609815.pdf,08/30/2016,,
609806,BRADWELL,"7736 S BURNHAM AVE, CHICAGO, IL 60649",41.754365,-87.557142,NO LEAD FOUND,IndividualSchool_Bradwell_609806.pdf,8/1/16,,,,
610242,BRENNEMANN,"4251 N CLARENDON AVE, CHICAGO, IL 60613",41.959984,-87.649749,LEAD FOUND,Individualschool_Brennemann_610242.pdf,7/21/16,retest_Brennemann_610242.pdf,9/6/16,,
609809,BRENTANO,2723 N FAIRFIELD AVENUE CHICAGO IL 60647,41.930966,-87.696294,LEAD FOUND,Individualschool_Brentano_609809.pdf,06/15/2016,retest_Brentano_609809.pdf,8/10/16,,
609810,BRIDGE,"3800 N NEW ENGLAND AVE, CHICAGO, IL 60634",41.949114,-87.798669,NO LEAD FOUND,Individualschool_bridge_609810.pdf,6/20/2016,,,,
609811,BRIGHT,"10740 S CALHOUN AVE, CHICAGO, IL 60617",41.699726,-87.562084,NO LEAD FOUND,Individualschool_Bright_609811.pdf,07/27/16,,,,
610317,BRIGHTON PARK,"3825 S WASHTENAW AVE, CHICAGO, IL 60632",41.8239,-87.692077,NO LEAD FOUND,Individualschool_BrightonPark_610317.pdf,07/18/2016,,,,
610381,BRONZEVILLE HS,"4934 S WABASH AVE, CHICAGO, IL 60615",41.805204,-87.625004,LEAD FOUND,IndividualSchool_Williams_610380.pdf,10/20/2016,,,,
610091,BROWN R,"12607 S UNION AVE, CHICAGO, IL 60628",41.664873,-87.638958,NO LEAD FOUND,IndividualSchool_BrownR_610091.pdf,07/12/2016,,,,
609812,BROWN W,"54 N HERMITAGE AVE, CHICAGO, IL 60612",41.882997,-87.670682,NO LEAD FOUND,IndividualSchool_BrownW_609812.pdf,07/25/2016,,,,
609813,BROWNELL,"6741 S MICHIGAN AVE, CHICAGO, IL 60637",41.77162,-87.621746,NO LEAD FOUND,Individualschool_Brownell_60981.pdf,07/22/2016,,,,
609830,BRUNSON,"932 N CENTRAL AVE, CHICAGO, IL 60651",41.897663,-87.765606,LEAD FOUND,IndividualSchool_Brunson_609830.pdf,10/07/16,,,,
609817,BUDLONG,2701 W FOSTER AVENUE CHICAGO IL 60625,41.975754,-87.696556,LEAD FOUND,Individualschool_Budlong_609817.pdf,06/15/2016,retest_budlong_609817.pdf,08/24/2016,,
609818,BURBANK,"2035 N MOBILE AVE, CHICAGO, IL 60639",41.917598,-87.7827,LEAD FOUND,Individualschool_Burbank_609818.pdf,06/21/2016,Retest_Burbank_609818.pdf,08/30/2016,,
609819,BURKE,"5356 S KING DR, CHICAGO, IL 60615",41.79676,-87.616141,LEAD FOUND,Individualschool_Burke_609819.pdf,07/05/2016,Retest_Burke_609819.pdf,08/30/2016,,
609820,BURLEY,1630 W BARRY AVENUE CHICAGO IL 60657,41.937937,-87.669853,NO LEAD FOUND,Individualschool_Burley_609820.pdf,06/15/2016,retest_Burley_609820.pdf,09/27/2016,,
609821,BURNHAM,"9928 S CRANDON AVE, CHICAGO, IL 60617",41.714402,-87.567131,NO LEAD FOUND,Individualschool_Burnham_609821.pdf,7/21/16,,,,
609827,BURNSIDE,"650 E 91ST PL, CHICAGO, IL 60619",41.728481,-87.607435,LEAD FOUND,IndividualSchool_Burnside_609827.pdf,07/28/16,Retest_Burnside_609827.pdf,08/30/16,,
609828,BURR,1621 W WABANSIA AVENUE CHICAGO IL 60622,41.912358,-87.668661,NO LEAD FOUND,Individualschool_Burr_609828.pdf,06/15/2016,retest_Burr_609828.pdf,09/27/2016,,
609829,BURROUGHS,3542 S WASHTENAW AVENUE CHICAGO IL 60632,41.828868,-87.692457,NO LEAD FOUND,Individualschool_Burroughs_609829.pdf,06/15/2016,,,,
609832,BYRNE,"5329 S OAK PARK AVE, CHICAGO, IL 60638",41.795031,-87.791544,NO LEAD FOUND,IndividualSchool_Byrne_609832.pdf,10/25/2016,,,,
609833,CALDWELL,"8546 S CREGIER AVE, CHICAGO, IL 60617",41.739226,-87.580729,LEAD FOUND,Individualschool_Caldwell_609833.pdf,07/22/2016,retest_Caldwell_609833.pdf,08/25/2016,,
610353,CALMECA,"3456 W 38TH ST, CHICAGO, IL 60632",41.824377,-87.711654,NO LEAD FOUND,IndividualSchool_Calmeca_610353.pdf,11/07/2016,,,,
610565,CAMELOT - EXCEL ENGLEWOOD HS,"7141 S MORGAN ST, CHICAGO, IL 60621",41.763896,-87.649124,NO LEAD FOUND,IndividualSchool_CamelotExcelEnglewood_610565.pdf,11/07/2016,,,,
610281,CAMELOT EXCEL SOUTHSHORE,"7511 S SOUTH SHORE DR, CHICAGO, IL 60649",41.760332,-87.556789,NO LEAD FOUND,IndividualSchool_CamelotExcelSouthshore_400175.pdf,11/07/2016,,,,
609835,CAMERON,"1234 N MONTICELLO AVE, CHICAGO, IL 60651",41.903792,-87.717927,LEAD FOUND,Individualschool_Cameron_609835.pdf,07/11/2016,Retest_Cameron_609835.pdf,08/30/2016,,
610539,CAMRAS,3000 N MANGO AVENUE CHICAGO IL 60634,41.934931,-87.770127,NO LEAD FOUND,Individualschool_Camras_610539.pdf,06/15/2016,,,,
609836,CANTY,3740 N PANAMA AVENUE CHICAGO IL 60634,41.948007,-87.829296,NO LEAD FOUND,Individualschool_Canty_609836.pdf,06/15/2016,retest_Canty_609836.pdf,09/22/2016,,
610024,CARDENAS,"2345 S MILLARD AVE, CHICAGO, IL 60623",41.848488,-87.716017,NO LEAD FOUND,Individualschool_cardenas_610024.pdf,06/22/2016,,,,
609837,CARNEGIE,"1414 E 61ST PL, CHICAGO, IL 60637",41.783368,-87.590795,LEAD FOUND,IndividualSchool_Carnegie_609837.pdf,07/25/2016,retest_Caldwell_609833.pdf,08/25/2016,,
609829,CARROLL,"2929 W 83RD ST, CHICAGO, IL 60652",41.742517,-87.696012,NO LEAD FOUND,Individualschool_Carroll_609839.pdf,07/14/2016,,,,
609842,CARSON,"5516 S MAPLEWOOD AVE, CHICAGO, IL 60629",41.793272,-87.6878,LEAD FOUND,Individualschool_carson_609842.pdf,06/22/2016,retest_carson_609842.pdf,08/25/2016,,
609844,CARTER,"5740 S MICHIGAN AVE, CHICAGO, IL 60637",41.789828,-87.622453,NO LEAD FOUND,Individualschool_Carter_609844.pdf,07/22/2016,,,,
609845,CARVER G,13281 S CORLISS AVENUE CHICAGO IL 60827,41.653702,-87.599516,LEAD FOUND,Individualschool_Carver_609845.pdf,06/15/2016,retest_Carver_609845.pdf,09/06/2016,,
609760,CARVER MILITARY HS,"13100 S DOTY AVE, CHICAGO, IL 60627",41.65629,-87.59062,LEAD FOUND,IndividualSchool_CarverMilitary_609760.pdf,10/21/2016,,,,
610021,CASALS,"3501 W POTOMAC AVE, CHICAGO, IL 60651",41.904503,-87.714234,LEAD FOUND,IndividualSchool_Casals_610021.pdf,10/06/16,,,,
609849,CASSELL,"11314 S SPAULDING AVE, CHICAGO, IL 60655",41.687347,-87.703215,LEAD FOUND,individualschool_cassell_609849.pdf,10/03/2016,,,,
609826,CASTELLANOS,"2524 S CENTRAL PARK AVE, CHICAGO, IL 60623",41.84545,-87.714927,LEAD FOUND,Individualschool_Castellanos_609826.pdf,10/13/2016,,,,
610251,CATHER,"2908 W WASHINGTON BLVD, CHICAGO, IL 60612",41.88295,-87.699187,NO LEAD FOUND,Individualschool_Cather_610251.pdf,07/01/2016,,,,
609851,CHALMERS,"2745 W ROOSEVELT RD, CHICAGO, IL 60608",41.866435,-87.695259,LEAD FOUND,IndividualSchool_Chalmers_609851.pdf,07/12/2016,retest_Chalmers_609851.pdf,8/11/16,,
609852,CHAPPELL,2131 W FOSTER AVENUE CHICAGO IL 60625,41.975894,-87.683264,LEAD FOUND,Individualschool_Chappell_609852.pdf,06/15/2016,retest_Chappell_609852.pdf,08/24/2016,,
609853,CHASE,"2021 N POINT ST, CHICAGO, IL 60647",41.917993,-87.694562,NO LEAD FOUND,Individualschool_Chase_609853.pdf,07/07/2016,retest_Chase_609853.pdf,8/10/16,,
610148,CHAVEZ,"4747 S MARSHFIELD AVE, CHICAGO, IL 60609",41.807143,-87.666037,NO LEAD FOUND,IndividualSchool_Chavez_610148.pdf,07/29/16,,,,
610248,CHICAGO ACADEMY ES,"3400 N AUSTIN AVE, CHICAGO, IL 60634",41.943056,-87.778187,NO LEAD FOUND,IndividualSchool_ChicagoAcademyES_610248.pdf,06/17/2016,,,,
609753,CHICAGO AGRICULTURE HS,"3857 W 111TH ST, CHICAGO, IL 60655",41.691221,-87.71777,NO LEAD FOUND,IndividualSchool_ChicagoAgriculture_609753.pdf,11/03/2016,,,,
400022,CHICAGO ARTS HS,"2714 W AUGUSTA BLVD, CHICAGO, IL 60622",41.899377,-87.694945,NO LEAD FOUND,IndividualSchool_ChicagoArtsHS_400022.pdf,11/07/2016,,,,
609674,CHICAGO VOCATIONAL HS,"2100 E 87TH ST, CHICAGO, IL 60617",41.737174,-87.573268,LEAD FOUND,IndividualSchool_CVCA_609674.pdf,10/28/2016,,,,
609854,CHOPIN,2450 W RICE STREET CHICAGO IL 60622,41.896713,-87.688937,NO LEAD FOUND,Individualschool_Chopin_609854.pdf,06/15/2016,retest_Chopin_609854.pdf,09/29/2016,,
609855,CHRISTOPHER,"5042 S ARTESIAN AVE, CHICAGO, IL 60632",41.801659,-87.685607,LEAD FOUND,IndividualSchool_Christopher_609855.pdf,10/07/16,,,,
400113,CICS - CHICAGOQUEST HS,"1443 N OGDEN AVE, CHICAGO, IL 60610",41.907797,-87.645561,NO LEAD FOUND,IndividualSchool_CICSChicagoQuest_400113.pdf,11/07/2016,,,,
610347,CLAREMONT,"2300 W 64TH ST, CHICAGO, IL 60636",41.777511,-87.681061,LEAD FOUND,IndividualSchool_Claremont_610347.pdf,10/18/16,,,,
609795,CLARK ES,"1045 S MONITOR AVE, CHICAGO, IL 60644",41.867813,-87.770418,NO LEAD FOUND,IndividualSchool_Clark_609795.pdf,07/25/2016,,,,
610244,CLARK HS,"5101 W HARRISON ST, CHICAGO, IL 60644",41.872885,-87.753325,LEAD FOUND,IndividualSchool_ClarkHS_610244.pdf,,,,,
609856,CLAY,"13231 S BURLEY AVE, CHICAGO, IL 60633",41.654558,-87.544614,NO LEAD FOUND,IndividualSchool_Clay_609856.pdf,8/1/16,,,,
609759,CLEMENTE HS,"1147 N WESTERN AVE, CHICAGO, IL 60622",41.902626,-87.686906,LEAD FOUND,IndividualSchool_Clemente_609759.pdf,10/26/2016,,,,
609857,CLEVELAND,"3121 W BYRON ST, CHICAGO, IL 60618",41.952042,-87.706443,NO LEAD FOUND,Individualschool_cleveland_609857.pdf,06/23/2016,,,,
609859,CLINTON,"6110 N FAIRFIELD AVE, CHICAGO, IL 60659",41.992541,-87.69836,NO LEAD FOUND,Individualschool_Clinton_609859.pdf,06/21/2016,,,,
609861,CLISSOLD,"2350 W 110TH PL, CHICAGO, IL 60643",41.693026,-87.680897,NO LEAD FOUND,IndividualSchool_Clissold_609861.pdf,10/25/2016,,,,
610199,COLEMON,"1441 W 119TH ST, CHICAGO, IL 60643",41.677505,-87.658111,NO LEAD FOUND,IndividualSchool_Colemon_610199.pdf,10/26/2016,,,,
609862,COLES,"8441 S YATES BLVD, CHICAGO, IL 60617",41.741413,-87.56597,LEAD FOUND,Individualschool_Coles_609862.pdf,07/11/2016,retest_Coles_609862.pdf,09/06/2016,,
610499,COLLINS HS,"1313 S SACRAMENTO DR, CHICAGO, IL 60623",41.864149,-87.702042,LEAD FOUND,IndividualSchool_CollinsHS_610499.pdf,11/07/2016,,,,
610170,COLUMBIA EXPLORERS,"4520 S KEDZIE AVE, CHICAGO, IL 60632",41.811069,-87.704199,LEAD FOUND,IndividualSchool_ColumbiaExplorers_610170.pdf,06/17/2016,retest_ColumbiaExplorers_610170.pdf,8/10/16,,
609863,COLUMBUS,"1003 N LEAVITT ST, CHICAGO, IL 60622",41.899566,-87.681938,LEAD FOUND,Individualschool_Columbus_609863.pdf,07/22/2016,retest_Columbus_609863.pdf,08/25/2016,,
609864,COOK,"8150 S BISHOP ST, CHICAGO, IL 60620",41.745237,-87.659775,NO LEAD FOUND,Individualschool_Cook_609864.pdf,7/21/16,,,,
609866,COONLEY,4046 N LEAVITT ST CHICAGO IL 60618,41.955553,-87.683765,NO LEAD FOUND,Individualschool_Coonley_609866.pdf,06/15/2016,retest_Coonley_609866.pdf,09/27/2016,,
609867,COOPER,"1624 W 19TH ST, CHICAGO, IL 60608",41.856031,-87.667227,NO LEAD FOUND,Individualschool_cooper_609867.pdf,06/23/2016,,,,
609870,CORKERY,"2510 S KILDARE AVE, CHICAGO, IL 60623",41.845602,-87.731193,NO LEAD FOUND,Individualschool_Corkery_609870.pdf,07/14/2016,,,,
609761,CORLISS HS,"821 E 103RD ST, CHICAGO, IL 60628",41.70666,-87.601216,NO LEAD FOUND,IndividualSchool_Corliss_609761.pdf,11/07/2016,,,,
610355,COURTENAY,"4420 N BEACON ST, CHICAGO, IL 60640",41.962308,-87.663853,LEAD FOUND,Individualschool_courtenay_610355.pdf,06/22/2016,retest_courtenay_610355.pdf,08/25/2016,,
609873,CROWN,2128 S SAINT LOUIS AVENUE CHICAGO IL 60623,41.852663,-87.71247,NO LEAD FOUND,Individualschool_Crown_609873.pdf,06/15/2016,Retest_crown_609873.pdf,10/21/2016,,
610003,CUFFE,"8324 S RACINE AVE, CHICAGO, IL 60620",41.742452,-87.653633,LEAD FOUND,IndividualSchool_Cuffe_610003.pdf,10/18/16,,,,
610004,CULLEN,"10650 S EBERHART AVE, CHICAGO, IL 60628",41.700335,-87.611244,NO LEAD FOUND,IndividualSchool_cullen_610004.pdf,10/11/16,,,,
609756,CURIE HS,"4959 S ARCHER AVE, CHICAGO, IL 60632",41.80306,-87.722042,NO LEAD FOUND,IndividualSchool_Curie_609756.pdf,11/07/2016,,,,
609900,CURTIS,"32 E 115TH ST, CHICAGO, IL 60628",41.685418,-87.621653,NO LEAD FOUND,Individualschool_Curtis_609900.pdf,07/22/2016,,,,
609875,DARWIN,"3116 W BELDEN AVE, CHICAGO, IL 60647",41.923323,-87.705413,LEAD FOUND,Individualschool_Darwin_609875.pdf,07/01/2016,retest_Darwin_609875.pdf,8/10/16,,
610521,DAVIS M,"6730 S PAULINA ST, CHICAGO, IL 60636",41.771221,-87.66653,NO LEAD FOUND,IndividualSchool_DavisM_610521.pdf,10/27/2016,,,,
609876,DAVIS N,"3014 W 39TH PL, CHICAGO, IL 60632",41.821852,-87.700202,NO LEAD FOUND,IndividualSchool_Davis_609876.pdf,07/29/16,,,,
609879,DAWES,3810 W 81ST PLACE CHICAGO IL 60652,41.745078,-87.717353,NO LEAD FOUND,Individualschool_Dawes_609879.pdf,06/15/2016,,,,
610313,DE DIEGO,1313 N CLAREMONT AVENUE CHICAGO IL 60622,41.905294,-87.685756,NO LEAD FOUND,Individualschool_DeDiego_610313.pdf,06/15/2016,retest_DeDiego_610313.pdf,09/27/2016,,
609880,DECATUR,"7030 N SACRAMENTO AVE, CHICAGO, IL 60645",42.009289,-87.704619,NO LEAD FOUND,IndividualSchool_Decatur_609880.pdf,10/04/2016,,,,
609883,DENEEN,"7240 S WABASH AVE, CHICAGO, IL 60619",41.76249,-87.623345,LEAD FOUND,Individualschool_Deneen_609883.pdf,06/30/2016,retest_Deneen_609883.pdf,8/11/16,,
610367,DEPRIEST,"139 S PARKSIDE AVE, CHICAGO, IL 60644",41.877979,-87.766298,NO LEAD FOUND,IndividualSchool_DePriest_610367.pdf,10/27/2016,,,,
610252,DETT,2131 W MONROE STREET CHICAGO IL 60612,41.87987,-87.680315,NO LEAD FOUND,Individualschool_Dett_610252.pdf,06/15/2016,retest_Dett_610252.pdf,09/27/2016,,
609884,DEVER,"3436 N OSCEOLA AVE, CHICAGO, IL 60634",41.942552,-87.813132,NO LEAD FOUND,Individualschool_Dever_609884.pdf,07/22/2016,,,,
609885,DEWEY,"5415 S UNION AVE, CHICAGO, IL 60609",41.795646,-87.642652,NO LEAD FOUND,Individualschool_dewey_609885.pdf,06/20/2016,,,,
609874,DIRKSEN,"8601 W FOSTER AVE, CHICAGO, IL 60656",41.973715,-87.841041,NO LEAD FOUND,Individualschool_Dirksen_609874.pdf,06/30/2016,,,,
610363,DISNEY,4140 N MARINE DRIVE CHICAGO IL 60613,41.956816,-87.646083,LEAD FOUND,Individualschool_Disney_610363.pdf,06/15/2016,retest_Disney_610363.pdf,09/06/2016,,
610515,DISNEY II,"3815 N KEDVALE AVE, CHICAGO, IL 60641",41.950461,-87.730678,LEAD FOUND,Individualschool_DisneyII_610515.pdf,06/29/2016,Retest_DisneyII_610515.pdf,08/30/2016,,
609887,DIXON,"8306 S SAINT LAWRENCE AVE, CHICAGO, IL 60619",41.743669,-87.609979,NO LEAD FOUND,IndividualSchool_Dixon_609887.pdf,8/1/16,,,,
610257,DODGE,"431 N TROY ST, CHICAGO, IL 60612",41.889178,-87.705108,LEAD FOUND,Individualschool_Dodge_610257.pdf,07/22/2016,Retest_Dodge_610257.pdf,08/30/2016,,
609891,DOOLITTLE,"535 E 35TH ST, CHICAGO, IL 60616",41.831121,-87.612275,NO LEAD FOUND,Individualschool_Doolittle_609891.pdf,07/27/16,,,,
609893,DORE,"6108 S NATOMA AVE, CHICAGO, IL 60638",41.780954,-87.787604,NO LEAD FOUND,Individualschool_Dore_609893.pdf,07/14/2016,,,,
609894,DRAKE,"2710 S DEARBORN ST, CHICAGO, IL 60616",41.844043,-87.628553,LEAD FOUND,Individualschool_Drake_609894.pdf,07/14/2016,Retest_Drake_609894.pdf,08/30/2016,,
609896,DRUMMOND,"1845 W CORTLAND ST, CHICAGO, IL 60622",41.915914,-87.674495,LEAD FOUND,IndividualSchool_Drummond_609896.pdf,07/25/2016,Retest_Drummond_609896.pdf,08/30/2016,,
610364,DUBOIS,"330 E 133RD ST, CHICAGO, IL 60827",41.653733,-87.61432,LEAD FOUND,Individualschool_DuBois_610364.pdf,07/27/16,Retest_DuBois_610364.pdf,08/30/16,,
610263,DULLES,"6311 S CALUMET AVE, CHICAGO, IL 60637",41.7799,-87.617214,NO LEAD FOUND,Individualschool_Dulles_610263.pdf,06/27/2016,,,,
609676,DUNBAR HS,"3000 S KING DR, CHICAGO, IL 60616",41.840226,-87.617637,LEAD FOUND,IndividualSchool_Dunbar_609676.pdf,10/21/2016,,,,
610188,DUNNE,"10845 S UNION AVE, CHICAGO, IL 60628",41.696496,-87.639974,NO LEAD FOUND,IndividualSchool_Dunne_610188.pdf,8/1/16,,,,
610352,DURKIN PARK,8445 S KOLIN AVENUE CHICAGO IL 60652,41.738844,-87.729955,LEAD FOUND,Individualschool_DurkinPark_610352.pdf,06/15/2016,retest_DurkinPark_610352.pdf,08/25/2016,,
610254,DVORAK,"3615 W 16TH ST, CHICAGO, IL 60623",41.858883,-87.715744,NO LEAD FOUND,Individualschool_dvorak_610254.pdf,06/20/2016,,,,
610316,EARHART,"1710 E 93RD ST, CHICAGO, IL 60617",41.726107,-87.582182,NO LEAD FOUND,IndividualSchool_Earhart_610316.pdf,10/08/16,,,,
609897,EARLE,"2040 W 62ND ST, CHICAGO, IL 60636",41.781225,-87.675547,NO LEAD FOUND,Individualschool_Earle_609897.pdf,06/27/2016,,,,
609898,EBERHART,"3400 W 65TH PL, CHICAGO, IL 60629",41.77442,-87.707953,NO LEAD FOUND,IndividualSchool_Eberhart_609898.pdf,10/10/16,,,,
609899,EBINGER,"7350 W PRATT AVE, CHICAGO, IL 60631",42.004408,-87.81117,NO LEAD FOUND,IndividualSchool_Ebinger_609899.pdf,10/25/2016,,,,
609901,EDGEBROOK,"6525 N HIAWATHA AVE, CHICAGO, IL 60646",41.999437,-87.76184,NO LEAD FOUND,IndividualSchool_Edgebrook_609901.pdf,09/29/16,,,,
609794,EDISON,"4929 N SAWYER AVE, CHICAGO, IL 60625",41.971506,-87.709304,LEAD FOUND,IndividualSchool_Edison_609794.pdf,10/07/16,,,,
610523,EDISON PARK,"6220 N OLCOTT AVE, CHICAGO, IL 60631",41.994238,-87.813771,NO LEAD FOUND,IndividualSchool_EdisonPark_610523.pdf,07/27/16,,,,
609903,EDWARDS,"4815 S KARLOV AVE, CHICAGO, IL 60632",41.805542,-87.725856,NO LEAD FOUND,IndividualSchool_Edwards_609903.pdf,8/1/16,,,,
609904,ELLINGTON,"243 N PARKSIDE AVE, CHICAGO, IL 60644",41.88553,-87.766589,NO LEAD FOUND,IndividualSchool_Ellington_609904.pdf,10/27/2016,,,,
400094,EPIC HS,"8255 S HOUSTON AVE, CHICAGO, IL 60617",41.744849,-87.550222,NO LEAD FOUND,IndividualSchool_EpicHS_400094.pdf,11/08/2016,,,,
609907,ERICSON,3600 W 5TH AVENUE CHICAGO IL 60624,41.875744,-87.715804,NO LEAD FOUND,Individualschool_Ericson_609907.pdf,06/15/2016,retest_Ericson_609907.pdf,09/27/2016,,
609908,ESMOND,1865 W MONTVALE AVENUE CHICAGO IL 60643,41.68942,-87.669159,LEAD FOUND,Individualschool_Esmond_609908.pdf,06/15/2016,Retest_Esmond_609908.pdf,08/30/2016,,
609909,EVERETT,"3419 S BELL AVE, CHICAGO, IL 60608",41.831555,-87.68131,LEAD FOUND,Individualschool_Everett_609909.pdf,07/05/2016,retest_Everett_609909.pdf,8/10/16,,
610319,EVERGREEN,"3537 S PAULINA ST, CHICAGO, IL 60609",41.829356,-87.667817,NO LEAD FOUND,IndividualSchool_Evergreen_610319.pdf,11/07/2016,,,,
610362,EVERS,9811 S LOWE AVENUE CHICAGO IL 60628,41.715665,-87.639305,NO LEAD FOUND,Individualschool_Evers_610362.pdf,06/15/2016,Retest_Evers_610362.pdf,10/07/2016,,
610057,FAIRFIELD,"6201 S FAIRFIELD AVE, CHICAGO, IL 60629",41.780904,-87.692115,LEAD FOUND,IndividualSchool_Fairfield_610057.pdf,07/08/2016,retest_Fairfield_610057.pdf,8/11/16,,
609910,FALCONER,"3020 N LAMON AVE, CHICAGO, IL 60641",41.935785,-87.749331,NO LEAD FOUND,Individualschool_Falconer_609910,07/07/2016,,,,
610055,FARADAY,"3250 W MONROE ST, CHICAGO, IL 60624",41.879714,-87.708092,NO LEAD FOUND,Individualschool_Faraday_610055.pdf,07/18/2016,,,,
609912,FARNSWORTH,"5414 N LINDER AVE, CHICAGO, IL 60630",41.97979,-87.766072,NO LEAD FOUND,IndividualSchool_Farnsworth_609912.pdf,06/17/2016,,,,
609704,FARRAGUT HS,"2345 S CHRISTIANA AVE, CHICAGO, IL 60623",41.84856,-87.708706,NO LEAD FOUND,Individualschool_Farragut_609704.pdf,07/22/2016,,,,
609917,FERNWOOD,10041 S UNION AVENUE CHICAGO IL 60628,41.711184,-87.640414,LEAD FOUND,Individualschool_Fernwood_609917.pdf,06/15/2016,retest_Fernwood_609917,09/06/2016,,
609918,FIELD,"7019 N ASHLAND AVE, CHICAGO, IL 60626",42.009664,-87.669985,LEAD FOUND,Individualschool_Field_609918.pdf,10/05/2016,,,,
609967,FINKL,"2332 S WESTERN AVE, CHICAGO, IL 60608",41.849215,-87.685668,NO LEAD FOUND,IndividualSchool_Finkl_609967.pdf,10/25/2016,,,,
609919,FISKE,"6020 S LANGLEY AVE, CHICAGO, IL 60637",41.785183,-87.608633,NO LEAD FOUND,IndividualSchool_Fiske_609919.pdf,06/17/2016,,,,
609708,FOREMAN HS,"3235 N LECLAIRE AVE, CHICAGO, IL 60641",41.939797,-87.754167,LEAD FOUND,IndividualSchool_Foreman_609708.pdf,10/21/2016,,,,
609924,FORT DEARBORN,"9025 S THROOP ST, CHICAGO, IL 60620",41.729673,-87.655481,LEAD FOUND,Individualschool_FortDearborn_609924.pdf,7/21/16,retest_FortDearborn_609924.pdf,9/6/16,,
609927,FOSTER PARK,"8530 S WOOD ST, CHICAGO, IL 60620",41.738425,-87.668099,NO LEAD FOUND,Individualschool_FosterPark_609927.pdf,06/30/2016,,,,
609926,FRANKLIN,"225 W EVERGREEN AVE, CHICAGO, IL 60610",41.9066,-87.635513,NO LEAD FOUND,IndividualSchool_Franklin_609926.pdf,10/25/2016,,,,
610503,FRAZIER PROSPECTIVE,"4027 W GRENSHAW ST, CHICAGO, IL 60624",41.86698,-87.727244,LEAD FOUND,IndividualSchool_FrazierProspective_610503.pdf,10/05/2016,,,,
609928,FULLER,"4214 S ST LAWRENCE AVE, CHICAGO, IL 60653",41.818003,-87.611784,NO LEAD FOUND,IndividualSchool_Fuller_609928.pdf,07/25/2016,,,,
609929,FULTON,5300 S HERMITAGE AVENUE CHICAGO IL 60609,41.79758,-87.668436,NO LEAD FOUND,Individualschool_Fulton_609929.pdf,06/15/2016,,,,
609930,FUNSTON,"2010 N CENTRAL PARK AVE, CHICAGO, IL 60647",41.917617,-87.716892,LEAD FOUND,Individualschool_Funston_609930.pdf,06/29/2016,Retest_Funston_609930.pdf,08/30/2016,,
609709,GAGE PARK HS,"5630 S ROCKWELL ST, CHICAGO, IL 60629",41.791013,-87.688954,NO LEAD FOUND,IndividualSchool_GagePark_609709.pdf,10/31/2016,,,,
609933,GALE,"1631 W JONQUIL TER, CHICAGO, IL 60626",42.021091,-87.671939,NO LEAD FOUND,Individualschool_Gale_609933.pdf,07/14/2016,,,,
610009,GALILEO,"820 S CARPENTER ST, CHICAGO, IL 60607",41.871255,-87.653366,LEAD FOUND,IndividualSchool_Galileo_610009.pdf,09/27/16,,,,
609935,GALLISTEL,"10347 S EWING AVE, CHICAGO, IL 60617",41.706801,-87.535175,LEAD FOUND,Individualschool_Gallistel_609935.pdf,07/27/16,retest_Gallistel_609935.pdf,08/25/16,,
610128,GARVEY,"10309 S MORGAN ST, CHICAGO, IL 60643",41.706603,-87.647577,NO LEAD FOUND,Individualschool_Garvey_610128.pdf,7/21/16,,,,
609937,GARVY,"5225 N OAK PARK AVE, CHICAGO, IL 60656",41.976352,-87.796235,NO LEAD FOUND,individualschool_garvy_609937.pdf,10/3/16,,,,
609938,GARY,"3740 W 31ST ST, CHICAGO, IL 60623",41.837065,-87.718697,NO LEAD FOUND,Individualschool_Gary_609938.pdf,8/19/16,,,,
609939,GILLESPIE,"9301 S STATE ST, CHICAGO, IL 60619",41.725332,-87.623719,NO LEAD FOUND,Individualschool_Gillespie_609939.pdf,06/29/2016,,,,
609942,GOETHE,2236 N ROCKWELL STREET CHICAGO IL 60647,41.922831,-87.6929,NO LEAD FOUND,Individualschool_Goethe_609942.pdf,06/15/2016,,,,
609945,GOUDY,"5120 N WINTHROP AVE, CHICAGO, IL 60640",41.975817,-87.657912,LEAD FOUND,Individualschool_Goudy_609945.pdf,07/01/2016,Retest_Goudy_609945.pdf,08/30/2016,,
609947,GRAHAM ES,"4436 S UNION AVE, CHICAGO, IL 60609",41.813304,-87.643344,LEAD FOUND,Individualschool_Graham_609947.pdf,07/22/2016,Retest_Graham_609947.pdf,08/30/2016,,
609769,GRAHAM HS,"2347 S WABASH AVE, CHICAGO, IL 60616",41.849675,-87.625315,NO LEAD FOUND,IndividualSchool_GrahamHS_609769.pdf,11/07/2016,,,,
609949,GRAY,"3730 N LARAMIE AVE, CHICAGO, IL 60641",41.948764,-87.757116,NO LEAD FOUND,IndividualSchool_Gray_609949.pdf,07/12/2016,,,,
609850,GREELEY,"832 W SHERIDAN RD, CHICAGO, IL 60613",41.95281,-87.65098,LEAD FOUND,Individualschool_Greeley_609850.pdf,07/05/2016,retest_Greeley_609850.pdf,8/10/16,,
610032,GREEN,"1150 W 96TH ST, CHICAGO, IL 60643",41.719292,-87.6525,NO LEAD FOUND,Individualschool_Green_610032.pdf,07/15/2016,,,,
609952,GREENE,"3525 S HONORE ST, CHICAGO, IL 60609",41.829669,-87.671492,NO LEAD FOUND,IndividualSchool_Greene_609952.pdf,10/26/2016,,,,
609954,GREGORY,"3715 W POLK ST, CHICAGO, IL 60624",41.870742,-87.718666,NO LEAD FOUND,Individualschool_Gregory_609954.pdf,07/22/2016,,,,
609955,GRESHAM,"8524 S GREEN ST, CHICAGO, IL 60620",41.73892,-87.645025,NO LEAD FOUND,Individualschool_Gresham_609955.pdf,7/21/16,,,,
609956,GRIMES,"5450 W 64TH PL, CHICAGO, IL 60638",41.775464,-87.758803,NO LEAD FOUND,IndividualSchool_Grimes_609956.pdf,8/1/16,,,,
609944,GRISSOM,"12810 S ESCANABA AVE, CHICAGO, IL 60633",41.662481,-87.553307,NO LEAD FOUND,IndividualSchool_Grissom_609944.pdf,07/25/2016,,,,
609958,GUNSAULUS,4420 S SACRAMENTO AVENUE CHICAGO IL 60632,41.813007,-87.699364,LEAD FOUND,Individualschool_Gunsaulus_609958.pdf,06/15/2016,,,,
609959,HAINES,"247 W 23RD PL, CHICAGO, IL 60616",41.849958,-87.633806,NO LEAD FOUND,IndividualSchool_Haines_609959.pdf,10/25/2016,,,,
609960,HALE,"6140 S MELVINA AVE, CHICAGO, IL 60638",41.780192,-87.776579,NO LEAD FOUND,Individualschool_Hale_609960.pdf,07/14/2016,,,,
609808,HALEY,"11411 S EGGLESTON AVE, CHICAGO, IL 60628",41.68666,-87.633632,LEAD FOUND,Individualschool_Haley_609808.pdf,07/22/2016,retest_Haley_609808.pdf,08/30/2016,,
609963,HAMILTON,"1650 W CORNELIA AVE, CHICAGO, IL 60657",41.94522,-87.670865,NO LEAD FOUND,IndividualSchool_Hamilton_609963.pdf,8/1/16,,,,
609964,HAMLINE,"4747 S BISHOP ST, CHICAGO, IL 60609",41.807242,-87.661175,LEAD FOUND,IndividualSchool_Hamline_609964.pdf,07/08/2016,Retest_Hamline_609964.pdf,08/30/2016,,
609966,HAMMOND,"2819 W 21ST PL, CHICAGO, IL 60623",41.852719,-87.696243,NO LEAD FOUND,IndividualSchool_Hammond_609966.pdf,07/29/16,,,,
609807,HAMPTON,"3434 W 77TH ST, CHICAGO, IL 60652",41.753457,-87.708731,LEAD FOUND,IndividualSchool_Hampton_609807.pdf,10/05/2016,,,,
609694,HANCOCK HS,"4034 W 56TH ST, CHICAGO, IL 60629",41.791464,-87.72447,NO LEAD FOUND,IndividualSchool_Hancock_609694.pdf,11/02/2016,,,,
610068,HANSON PARK,5411 W FULLERTON AVENUE CHICAGO IL 60639,41.923955,-87.761515,NO LEAD FOUND,Individualschool_HansonPark_610068.pdf,06/15/2016,,,,
609710,HARLAN HS,"9652 S MICHIGAN AVE, CHICAGO, IL 60628",41.718372,-87.620623,LEAD FOUND,IndividualSchool_Harlan_609710.pdf,10/28/2016,,,,
609969,HARTE,"1556 E 56TH ST, CHICAGO, IL 60637",41.793447,-87.586855,LEAD FOUND,IndividualSchool_Harte_609969.pdf,07/12/2016,Retest_Harte_609969.pdf,8/30/16,,
609971,HARVARD,7527 S HARVARD AVENUE CHICAGO IL 60620,41.757341,-87.632737,LEAD FOUND,Individualschool_Harvard_609971.pdf,06/15/2016,retest_Harvard_609971.pdf,09/06/2016,,
609972,HAUGAN,4540 N HAMLIN AVENUE CHICAGO IL 60625,41.964029,-87.723128,NO LEAD FOUND,Individualschool_Haugan_609972.pdf,06/15/2016,,,,
609974,HAWTHORNE,"3319 N CLIFTON AVE, CHICAGO, IL 60657",41.942275,-87.657709,NO LEAD FOUND,IndividualSchool_Hawthorne_609974.pdf,10/25/2016,,,,
609975,HAY,"1018 N LARAMIE AVE, CHICAGO, IL 60651",41.899171,-87.755813,NO LEAD FOUND,Individualschool_Hay_609975.pdf,06/28/2016,,,,
609976,HAYT,"1518 W GRANVILLE AVE, CHICAGO, IL 60660",41.994541,-87.668504,NO LEAD FOUND,Individualschool_hayt_609976.pdf,06/20/2016,,,,
609979,HEALY,"3010 S PARNELL AVE, CHICAGO, IL 60616",41.839595,-87.640341,LEAD FOUND,Individualschool_healy_609979.pdf,06/24/2016,retest_healy_609979.pdf,08/30/2016,,
609981,HEARST,"4640 S LAMON AVE, CHICAGO, IL 60638",41.808175,-87.745726,NO LEAD FOUND,Individualschool_Hearst_609981.pdf,07/05/2016,,,,
609983,HEDGES,"4747 S WINCHESTER AVE, CHICAGO, IL 60609",41.807112,-87.673327,NO LEAD FOUND,Individualschool_hedges_609983.pdf,06/23/2016,,,,
609985,HEFFERAN,4409 W WILCOX STREET CHICAGO IL 60624,41.878665,-87.735802,NO LEAD FOUND,Individualschool_Hefferan_609985.pdf,06/15/2016,retest_Hefferan_609985.pdf,09/27/2016,,
609986,HENDERSON,"5650 S WOLCOTT AVE, CHICAGO, IL 60636",41.790591,-87.671887,NO LEAD FOUND,IndividualSchool_Henderson_609986.pdf,07/27/16,,,,
609987,HENDRICKS,"4316 S PRINCETON AVE, CHICAGO, IL 60609",41.815788,-87.633664,NO LEAD FOUND,Individualschool_Hendricks_609987.pdf,7/21/16,,,,
609988,HENRY,4250 N SAINT LOUIS AVE CHICAGO IL 60618,41.958989,-87.715632,NO LEAD FOUND,Individualschool_Henry_609988.pdf,06/15/2016,,,,
609991,HERZL,"3711 W DOUGLAS BLVD, CHICAGO, IL 60623",41.862081,-87.718994,NO LEAD FOUND,Individualschool_Herzl_609991.pdf,07/18/2016,,,,
609994,HIBBARD,"3244 W AINSLIE ST, CHICAGO, IL 60625",41.970335,-87.710362,LEAD FOUND,IndividualSchool_Hibbard_609994.pdf,06/17/2016,retest_Hibbard_609994.pdf,08/24/2016,,
610295,HIGGINS,"11710 S MORGAN ST, CHICAGO, IL 60643",41.681031,-87.646994,NO LEAD FOUND,IndividualSchool_Higgins_610295.pdf,07/27/16,,,,
609995,HITCH,"5625 N MCVICKER AVE, CHICAGO, IL 60646",41.983672,-87.779123,NO LEAD FOUND,Individualschool_Hitch_609995.pdf,07/22/2016,,,,
609996,HOLDEN,"1104 W 31ST ST, CHICAGO, IL 60608",41.838027,-87.653792,NO LEAD FOUND,Individualschool_Holden_609996.pdf,7/21/16,,,,
609997,HOLMES,"955 W GARFIELD BLVD, CHICAGO, IL 60621",41.793788,-87.649795,NO LEAD FOUND,Individualschool_Holmes_609997.pdf,07/27/16,,,,
609768,HOPE HS,"5515 S LOWE AVE, CHICAGO, IL 60621",41.793553,-87.641244,NO LEAD FOUND,IndividualSchool_Hope_609768.pdf,11/03/2016,,,,
400043,HOPE INSTITUTE,"1628 W WASHINGTON, CHICAGO, IL 60612",41.883362,-87.668077,LEAD FOUND,Individualschool_HopeInstitute_400043.pdf,09/28/2016,,,,
610000,HOWE,"720 N LOREL AVE, CHICAGO, IL 60644",41.893612,-87.759398,NO LEAD FOUND,Individualschool_Howe_610000.pdf,07/15/2016,,,,
610002,HOYNE,"8905 S CRANDON AVE, CHICAGO, IL 60617",41.733338,-87.568228,LEAD FOUND,IndividualSchool_Hoyne_610002.pdf,10/08/16,,,,
609741,HUBBARD HS,"6200 S HAMLIN AVE, CHICAGO, IL 60629",41.780526,-87.718014,NO LEAD FOUND,IndividualSchool_Hubbard_609741.pdf,10/18/16,,,,
610005,HUGHES C,"4247 W 15TH ST, CHICAGO, IL 60623",41.860518,-87.731777,LEAD FOUND,Individualschool_HughesC_610005.pdf,07/05/2016,retest_HughesC_610005.pdf,8/10/16,,
610368,HUGHES L,"240 W 104TH ST, CHICAGO, IL 60628",41.705342,-87.629869,LEAD FOUND,IndividualSchool_HughesL_610368.pdf,10/07/2016,,,,
610006,HURLEY,"3849 W 69TH PL, CHICAGO, IL 60629",41.766785,-87.719541,NO LEAD FOUND,IndividualSchool_Hurley_610006.pdf,07/08/2016,,,,
610078,INTERAMERICAN,"851 W WAVELAND AVE, CHICAGO, IL 60613",41.949003,-87.651573,NO LEAD FOUND,Individualschool_Interamerican_610078.pdf,07/07/2016,,,,
610121,IRVING,"749 S OAKLEY BLVD, CHICAGO, IL 60612",41.871595,-87.683616,NO LEAD FOUND,IndividualSchool_Irving_610121.pdf,10/25/2016,,,,
610369,JACKSON M,917 W 88TH STREET CHICAGO IL 60620,41.734125,-87.646767,NO LEAD FOUND,Individualschool_Jackson_610369.pdf,06/15/2016,Retest_JacksonM_610369.pdf,10/21/2016,,
610010,JAHN,"3149 N WOLCOTT AVE, CHICAGO, IL 60657",41.939247,-87.67581,NO LEAD FOUND,Individualschool_Jahn_610010.pdf,07/01/2016,,,,
610011,JAMIESON,5650 N MOZART STREET CHICAGO IL 60659,41.984641,-87.700529,NO LEAD FOUND,Individualschool_Jamieson_610011.pdf,06/15/2016,Retest_Jamieson_610011.pdf,10/21/2016,,
610012,JENNER,"1119 N CLEVELAND AVE, CHICAGO, IL 60610",41.902055,-87.641056,NO LEAD FOUND,IndividualSchool_Jenner_610012.pdf,10/26/2016,,,,
610271,JENSEN,"3030 W HARRISON ST, CHICAGO, IL 60612",41.873815,-87.702241,NO LEAD FOUND,Individualschool_Jensen_610271.pdf,8/19/16,,,,
610274,JOHNSON,"1420 S ALBANY AVE, CHICAGO, IL 60623",41.861836,-87.703139,NO LEAD FOUND,Individualschool_Johnson_610274.pdf,06/29/2016,,,,
609678,JONES HS,"700 S STATE ST, CHICAGO, IL 60605",41.873066,-87.627675,NO LEAD FOUND,IndividualSchool_JonesHS_609678.pdf,11/03/2016,,,,
609805,JOPLIN,"7931 S HONORE ST, CHICAGO, IL 60620",41.749339,-87.669366,NO LEAD FOUND,IndividualSchool_Joplin_609805.pdf,07/25/2016,,,,
609865,JORDAN,"7414 N WOLCOTT AVE, CHICAGO, IL 60626",42.017088,-87.677763,LEAD FOUND,IndividualSchool_Jordan_609865.pdf,10/09/16,,,,
609764,JUAREZ HS,"2150 S LAFLIN ST, CHICAGO, IL 60608",41.852667,-87.663732,NO LEAD FOUND,IndividualSchool_JuarezHS_ 609764.pdf,11/07/2016,,,,
609762,JULIAN HS,"10330 S ELIZABETH ST, CHICAGO, IL 60643",41.705859,-87.653749,LEAD FOUND,IndividualSchool_JulianHS_609762.pdf,11/07/2016,,,,
610015,JUNGMAN,1746 S MILLER STREET CHICAGO IL 60608,41.858065,-87.652302,NO LEAD FOUND,Individualschool_Jungman_610015.pdf,06/15/2016,Retest_jungman_610015.pdf,10/21/2016,,
609920,KANOON,"2233 S KEDZIE AVE, CHICAGO, IL 60623",41.850771,-87.705112,LEAD FOUND,Individualschool_Kanoon_609920.pdf,7/21/16,retest_Kanoon_609920.pdf,8/25/16,,
610084,KELLER,"3020 W 108TH ST, CHICAGO, IL 60655",41.69717,-87.697278,NO LEAD FOUND,IndividualSchool_Keller_610084.pdf,10/26/2016,,,,
609925,KELLMAN,3030 W ARTHINGTON STREET CHICAGO IL 60612,41.870168,-87.702163,NO LEAD FOUND,Individualschool_kellman_609925.pdf,06/15/2016,retest_kellman_609925.pdf,09/28/2016,,
610016,KELLOGG,"9241 S LEAVITT ST, CHICAGO, IL 60620",41.725263,-87.677233,LEAD FOUND,IndividualSchool_Kellogg_610016.pdf,09/30/2016,,,,
609715,KELLY HS,"4136 S CALIFORNIA AVE, CHICAGO, IL 60632",41.818729,-87.694639,NO LEAD FOUND,IndividualSchool_KellyHS_609715.pdf,10/27/2016,,,,
609718,KENNEDY HS,"6325 W 56TH ST, CHICAGO, IL 60638",41.789961,-87.78084,NO LEAD FOUND,IndividualSchool_Kennedy_609718.pdf,11/02/2016,,,,
610019,KERSHAW,"6450 S LOWE AVE, CHICAGO, IL 60621",41.776453,-87.640892,LEAD FOUND,IndividualSchool_Kershaw_610019.pdf,07/12/2016,retest_Kershaw_610019.pdf,08/25/2016,,
610022,KILMER,6700 N GREENVIEW AVENUE CHICAGO IL 60626,42.00364,-87.668222,NO LEAD FOUND,Individualschool_Kilmer_610022.pdf,06/15/2016,,,,
610299,KING ES,"644 W 71ST ST, CHICAGO, IL 60621",41.765335,-87.641335,NO LEAD FOUND,Individualschool_King_610299.pdf,07/27/16,,,,
609751,KING HS,"4445 S DREXEL BLVD, CHICAGO, IL 60653",41.813675,-87.603874,NO LEAD FOUND,IndividualSchool_KingHS_609751.pdf,11/03/2016,,,,
610026,KINZIE,"5625 S MOBILE AVE, CHICAGO, IL 60638",41.789965,-87.779483,NO LEAD FOUND,IndividualSchool_Kinzie_610026.pdf,11/02/2016,,,,
610027,KIPLING,"9351 S LOWE AVE, CHICAGO, IL 60620",41.723627,-87.639521,NO LEAD FOUND,IndividualSchool_Kipling_610027.pdf,10/25/2016,,,,
400177,KIPP CHICAGO - ASCEND PRIMARY,"1440 S. CHRISTIANA, CHICAGO, IL 60623",41.861174,-87.709287,LEAD FOUND,IndividualSchool_KippAscendPrimary_400044.pdf,10/10/16,,,,
610030,KOZMINSKI,936 E 54TH STREET CHICAGO IL 60615,41.798002,-87.602481,NO LEAD FOUND,Individualschool_kozminski_610030.pdf,06/15/2016,Retest_kozminski_610030.pdf,10/21/2016,,
609719,LAKE VIEW HS,"4015 N ASHLAND AVE, CHICAGO, IL 60613",41.954764,-87.668953,LEAD FOUND,IndividualSchool_LakeViewHS_609719.pdf,11/02/2016,,,,
609720,LANE TECH HS,"2501 W ADDISON ST, CHICAGO, IL 60618",41.946645,-87.691013,NO LEAD FOUND,IndividualSchool_LaneTech_609720.pdf,10/31/2016,,,,
609869,LANGFORD,6010 S THROOP STREET CHICAGO IL 60636,41.784681,-87.657169,NO LEAD FOUND,Individualschool_Langford_609869.pdf,06/15/2016,,,,
609993,LARA,"4619 S WOLCOTT AVE, CHICAGO, IL 60609",41.80977,-87.672182,NO LEAD FOUND,IndividualSchool_Lara_609993.pdf,10/26/2016,,,,
610033,LASALLE,"1734 N ORLEANS ST, CHICAGO, IL 60614",41.9139,-87.637565,LEAD FOUND,individualschool_lasalle_610033.pdf,10/03/2016,,,,
610520,LASALLE II,1148 N HONORE STREET CHICAGO IL 60622,41.902914,-87.673696,LEAD FOUND,Individualschool_Lasalle_II_610520.pdf,06/15/2016,retest_Lasalle_II_610520.pdf,8/10/16,,
610208,LAVIZZO,"138 W 109TH ST, CHICAGO, IL 60628",41.696262,-87.627148,NO LEAD FOUND,IndividualSchool_Lavizzo_610208.pdf,10/26/2016,,,,
610034,LAWNDALE,"3500 W DOUGLAS BLVD, CHICAGO, IL 60623",41.86296,-87.712957,NO LEAD FOUND,IndividualSchool_Lawndale_610034.pdf,07/08/2016,,,,
610291,LEE,"6448 S TRIPP AVE, CHICAGO, IL 60629",41.775305,-87.728884,NO LEAD FOUND,Individualschool_Lee_610291.pdf,07/22/2016,,,,
610305,LELAND,"512 S LAVERGNE AVE, CHICAGO, IL 60644",41.873587,-87.749276,NO LEAD FOUND,Individualschool_Leland_610237.pdf,06/28/2016,,,,
610298,LENART,8101 S LASALLE STREET CHICAGO IL 60620,41.747186,-87.62804,NO LEAD FOUND,Individualschool_Lenart_610298.pdf,06/15/2016,retest_Lenart_610298.pdf,09/27/2016,,
610036,LEWIS,"1431 N LEAMINGTON AVE, CHICAGO, IL 60651",41.906826,-87.75455,LEAD FOUND,Individualschool_Lewis_610036.pdf,07/22/2016,retest_Lewis_610036.pdf,08/30/2016,,
610037,LIBBY,"5300 S LOOMIS BLVD, CHICAGO, IL 60609",41.797685,-87.659933,NO LEAD FOUND,IndividualSchool_Libby_610037.pdf,10/25/2016,,,,
610038,LINCOLN,"615 W KEMPER PL, CHICAGO, IL 60614",41.924525,-87.644497,NO LEAD FOUND,IndividualSchool_Lincoln_610038.pdf,10/25/2016,,,,
609738,LINCOLN PARK HS,"2001 N ORCHARD ST, CHICAGO, IL 60614",41.918268,-87.646009,NO LEAD FOUND,IndividualSchool_LincolnParkHS_609738.pdf,11/08/2016,,,,
610391,LINDBLOM HS,"6130 S WOLCOTT AVE, CHICAGO, IL 60636",41.782041,-87.671662,LEAD FOUND,IndividualSchool_Lindblom_610391.pdf,11/07/2016,,,,
609834,LITTLE VILLAGE,"2620 S LAWNDALE AVE, CHICAGO, IL 60623",41.843698,-87.717319,LEAD FOUND,IndividualSchool_LittleVillage_609834.pdf,10/06/2016,,,,
610040,LLOYD,2103 N LAMON AVENUE CHICAGO IL 60639,41.918814,-87.748515,NO LEAD FOUND,Individualschool_Lloyd_610040.pdf,06/15/2016,,,,
610041,LOCKE J,2845 N NEWCASTLE AVENUE CHICAGO IL 60634,41.931762,-87.795604,LEAD FOUND,Individualschool_LockeJ_610041.pdf,06/15/2016,retest_LockeJ_610041.pdf,08/24/2016,,
610325,LOGANDALE,"3212 W GEORGE ST, CHICAGO, IL 60618",41.93397,-87.708041,NO LEAD FOUND,Individualschool_Logandale_610325.pdf,06/16/2016,,,,
610541,LORCA,"3231 N SPRINGFIELD AVE, CHICAGO, IL 60618",41.940026,-87.724783,NO LEAD FOUND,Individualschool_Lorca_610541.pdf,10/14/2016,,,,
610043,LOVETT,"6333 W BLOOMINGDALE AVE, CHICAGO, IL 60639",41.912718,-87.783919,LEAD FOUND,IndividualSchool_Lovett_610043.pdf,07/08/2016,retest_Lovett_610043.pdf,8/11/16,,
610044,LOWELL,"3320 W HIRSCH ST, CHICAGO, IL 60651",41.90652,-87.710217,LEAD FOUND,Individualschool_Lowell_610044.pdf,07/27/16,retest_Lowell_610044.pdf,09/01/16,,
610029,LOZANO,"1501 N GREENVIEW AVE, CHICAGO, IL 60642",41.908886,-87.665093,LEAD FOUND,Individualschool_Lozano_610029.pdf,07/27/16,retest_Lozano_610029.pdf,08/20/16,,
610046,LYON,"2941 N MCVICKER AVE, CHICAGO, IL 60634",41.934192,-87.777174,LEAD FOUND,Individualschool_Lyon_610046.pdf,9/28/16,,,,
610047,MADISON,"7433 S DORCHESTER AVE, CHICAGO, IL 60619",41.759548,-87.590712,NO LEAD FOUND,IndividualSchool_Madison_610047.pdf,8/1/16,,,,
610048,MANIERRE,"1420 N HUDSON AVE, CHICAGO, IL 60610",41.908247,-87.639827,LEAD FOUND,Individualschool_Manierre_610048.pdf,06/27/2016,retest_Manierre_610048.pdf,09/06/2016,,
609722,MANLEY HS,"2935 W POLK ST, CHICAGO, IL 60612",41.870939,-87.699896,NO LEAD FOUND,IndividualSchool_Manley_609722.pdf,10/27/2016,,,,
610052,MANN,"8050 S CHAPPEL AVE, CHICAGO, IL 60617",41.748274,-87.574816,NO LEAD FOUND,Individualschool_Mann_610052.pdf,07/22/2016,,,,
610053,MARQUETTE,"6550 S RICHMOND ST, CHICAGO, IL 60629",41.773881,-87.69703,NO LEAD FOUND,IndividualSchool_Marquette_610053.pdf,07/08/2016,,,,
610054,MARSH,"9822 S EXCHANGE AVE, CHICAGO, IL 60617",41.716588,-87.552483,LEAD FOUND,Individualschool_Marsh_610054.pdf,07/05/2016,retest_Marsh_610054.pdf,8/10/16,,
610056,MASON,"4217 W 18TH ST, CHICAGO, IL 60623",41.856864,-87.731672,LEAD FOUND,Individualschool_Mason_610056.pdf,07/22/2016,Retest_Mason_610056.pdf,08/30/2016,,
609724,MATHER HS,"5835 N LINCOLN AVE, CHICAGO, IL 60659",41.987589,-87.702496,NO LEAD FOUND,IndividualSchool_Mather_609724.pdf,11/03/2016,,,,
610059,MAYER,2250 N CLIFTON AVENUE CHICAGO IL 60614,41.923204,-87.657287,NO LEAD FOUND,Individualschool_Mayer_610059.pdf,06/15/2016,,,,
610290,MAYS,6656 S NORMAL BOULEVARD CHICAGO IL 60621,41.772727,-87.637277,NO LEAD FOUND,Individualschool_Mays_610290.pdf,06/15/2016,retest_Mays_610290.pdf,10/05/2016,,
609968,MCAULIFFE,"1841 N SPRINGFIELD AVE, CHICAGO, IL 60647",41.914816,-87.723931,NO LEAD FOUND,Individualschool_McAuliffe_609968.pdf,10/14/2016,,,,
610062,MCCLELLAN,"3527 S WALLACE ST, CHICAGO, IL 60609",41.829993,-87.641103,NO LEAD FOUND,Individualschool_McClellan_610062.pdf,07/14/2016,,,,
610063,MCCORMICK,"2712 S SAWYER AVE, CHICAGO, IL 60623",41.842267,-87.7063,NO LEAD FOUND,Individualschool_McCormick_610063.pdf,07/08/2016,,,,
610269,MCCUTCHEON,"4865 N SHERIDAN RD, CHICAGO, IL 60640",41.970949,-87.654758,NO LEAD FOUND,Individualschool_McCutcheon_610269.pdf,06/24/2016,,,,
610066,MCDADE,"8801 S INDIANA AVE, CHICAGO, IL 60619",41.73455,-87.619214,NO LEAD FOUND,IndividualSchool_McDade_610066.pdf,10/25/2016,,,,
610312,MCDOWELL,"1419 E 89TH ST, CHICAGO, IL 60619",41.733132,-87.589589,NO LEAD FOUND,Individualschool_McDowell_610312.pdf,8/5/16,,,,
610067,MCKAY,"6901 S FAIRFIELD AVE, CHICAGO, IL 60629",41.768143,-87.691787,NO LEAD FOUND,Individualschool_McKay_610067.pdf,06/20/2016,,,,
610282,MCNAIR,"4820 W WALTON ST, CHICAGO, IL 60651",41.897819,-87.746731,LEAD FOUND,IndividualSchool_McNair_610282.pdf,10/07/16,,,,
610070,MCPHERSON,"4728 N WOLCOTT AVE, CHICAGO, IL 60640",41.967847,-87.676288,NO LEAD FOUND,Individualschool_McPherson_610070.pdf,8/19/16,,,,
610293,MELODY,"3937 W WILCOX ST, CHICAGO, IL 60624",41.878799,-87.724661,NO LEAD FOUND,Individual school_Melody_610293.pdf,06/16/2016,,,,
609902,METCALFE,"12339 S NORMAL AVE, CHICAGO, IL 60628",41.669444,-87.634306,NO LEAD FOUND,Individualschool_Metcalfe_609902.pdf,07/18/2016,,,,
610171,MIRELES,"9000 S EXCHANGE AVE, CHICAGO, IL 60617",41.731717,-87.552788,LEAD FOUND,Individualschool_Mireles_610171.pdf,07/14/2016,retest_Mireles_610171.pdf,08/30/2016,,
610073,MITCHELL,"2233 W OHIO ST, CHICAGO, IL 60612",41.892082,-87.683185,LEAD FOUND,Individualschool_Mitchell_610073.pdf,07/27/16,retest_Mitchell_610073.pdf,09/06/16,,
610276,MOLLISON,"4415 S DR MARTIN L KING JR DR, CHICAGO, IL 60653",41.814358,-87.616618,NO LEAD FOUND,Individualschool_Mollison_610276.pdf,07/27/16,,,,
610074,MONROE,3651 W SCHUBERT AVENUE CHICAGO IL 60647,41.929989,-87.719224,NO LEAD FOUND,Individualschool_Monroe_610074.pdf,06/15/2016,,,,
400116,MONTESSORI ENGLEWOOD,"6550 S SEELEY AVE, CHICAGO, IL 60636",41.774572,-87.676147,NO LEAD FOUND,IndividualSchool_MontessoriEnglewood_400116.pdf,10/25/2016,,,,
610076,MOOS,"1711 N CALIFORNIA AVE, CHICAGO, IL 60647",41.912505,-87.696941,NO LEAD FOUND,Individualschool_Moos_610076.pdf,07/11/2016,,,,
610077,MORRILL,"6011 S ROCKWELL ST, CHICAGO, IL 60629",41.784313,-87.688549,NO LEAD FOUND,Individualschool_Morrill_610077.pdf,07/05/2016,,,,
610082,MOUNT GREENWOOD,"10841 S HOMAN AVE, CHICAGO, IL 60655",41.695734,-87.70581,NO LEAD FOUND,IndividualSchool_MountGreenwood_610082.pdf,10/25/2016,,,,
610086,MOUNT VERNON,"10540 S MORGAN ST, CHICAGO, IL 60643",41.701952,-87.647652,NO LEAD FOUND,IndividualSchool_MountVernon_610086.pdf,07/27/16,,,,
610088,MOZART,"2200 N HAMLIN AVE, CHICAGO, IL 60647",41.92091,-87.721888,NO LEAD FOUND,Individualschool_Mozart_610088.pdf,07/11/2016,,,,
610089,MURPHY,"3539 W GRACE ST, CHICAGO, IL 60618",41.950078,-87.716832,NO LEAD FOUND,Individualschool_Murphy_610089.pdf,06/27/2016,,,,
610090,MURRAY,"5335 S KENWOOD AVE, CHICAGO, IL 60615",41.798535,-87.59334,NO LEAD FOUND,IndividualSchool_Murray_610090.pdf,10/25/2016,,,,
610092,NASH,"4837 W ERIE ST, CHICAGO, IL 60644",41.89181,-87.747936,NO LEAD FOUND,IndividualSchool_Nash_610092.pdf,07/25/2016,,,,
610231,NATIONAL TEACHERS,"55 W CERMAK RD, CHICAGO, IL 60616",41.8528,-87.629308,NO LEAD FOUND,IndividualSchool_NationalTeachers_610231.pdf,10/26/2016,,,,
610093,NEIL,8555 S MICHIGAN AVENUE CHICAGO IL 60619,41.738407,-87.620933,NO LEAD FOUND,Individualschool_Neil_610093.pdf,06/15/2016,,,,
610094,NETTELHORST,"3252 N BROADWAY ST, CHICAGO, IL 60657",41.941637,-87.644561,LEAD FOUND,Individualschool_Nettelhorst_610094.pdf,07/22/2016,Retest_Nettelhorst_610094.pdf,09/06/2016,,
610284,NEW FIELD,"1707 W MORSE AVE, CHICAGO, IL 60626",42.007703,-87.673168,NO LEAD FOUND,IndividualSchool_NewField_610284.pdf,10/26/2016,,,,
610193,NEW SULLIVAN,"8331 S MACKINAW AVE, CHICAGO, IL 60617",41.743829,-87.542928,NO LEAD FOUND,IndividualSchool_NewSulllivan_610193.pdf,10/26/2016,,,,
610095,NEWBERRY,"700 W WILLOW ST, CHICAGO, IL 60614",41.913947,-87.64599,LEAD FOUND,Individualschool_Newberry_610095.pdf,07/22/2016,retest_Newberry_610095.pdf,09/06/2016,,
609793,NICHOLSON,6006 S PEORIA STREET CHICAGO IL 60621,41.784942,-87.647453,NO LEAD FOUND,Individualschool_Nicholson_609793.pdf,06/15/2016,Retest_Nicholson_609793.pdf,09/21/2016,,
610096,NIGHTINGALE,5250 S ROCKWELL STREET CHICAGO IL 60632,41.797714,-87.689139,LEAD FOUND,Individualschool_Nightingale_610096.pdf,06/15/2016,retest_Nightingale_610096.pdf,8/10/16,,
609961,NINOS HEROES,"8344 S COMMERCIAL AVE, CHICAGO, IL 60617",41.743753,-87.551862,NO LEAD FOUND,Individualschool_NinosHeroes_609961.pdf,07/22/2016,,,,
610097,NIXON,"2121 N KEELER AVE, CHICAGO, IL 60639",41.919581,-87.73142,NO LEAD FOUND,IndividualSchool_Nixon_610097.pdf,07/08/2016,,,,
610098,NOBEL,"4127 W HIRSCH ST, CHICAGO, IL 60651",41.906155,-87.729955,NO LEAD FOUND,IndividualSchool_Nobel_610098.pdf,07/29/16,,,,
400058,NORTH LAWNDALE - CHRISTIANA HS,"1615 S. CHRISTIANA AVE., CHICAGO, IL 60623",41.858564,-87.708987,LEAD FOUND,IndividualSchool_NorthLawndaleChristiana_400058.pdf,10/28/2016,,,,
610354,NORTH RIVER,"4416 N TROY ST, CHICAGO, IL 60625",41.961721,-87.707151,NO LEAD FOUND,IndividualSchool_NorthRiver_610354.pdf,07/12/2016,,,,
609744,NORTHSIDE LEARNING HS,"3730 W BRYN MAWR AVE, CHICAGO, IL 60659",41.982973,-87.722386,LEAD FOUND,IndividualSchool_NorthsideHS_609744.pdf,11/07/2016,,,,
609749,NORTHSIDE PREP HS,"5501 N KEDZIE AVE, CHICAGO, IL 60625",41.981315,-87.708708,NO LEAD FOUND,IndividualSchool_NorthsidePrep_609749.pdf,11/21/2016,,,,
610099,NORWOOD PARK,"5900 N NINA AVE, CHICAGO, IL 60631",41.988153,-87.802979,LEAD FOUND,Individualschool_NorwoodPark_610099.pdf,07/18/2016,retest_NorwoodPark_610099.pdf,08/30/2016,,
610101,OGDEN,24 W WALTON ST CHICAGO IL 60610,41.899976,-87.629297,NO LEAD FOUND,Individualschool_Ogden_610101.pdf,06/15/2016,retest_Ogden_610101.pdf,09/30/2016,,
610529,OGDEN HS,"1250 W ERIE ST, CHICAGO, IL 60642",41.893548,-87.659405,NO LEAD FOUND,IndividualSchool_Ogden_610529.pdf,11/03/2016,,,,
610102,OGLESBY,"7646 S GREEN ST, CHICAGO, IL 60620",41.75467,-87.645469,NO LEAD FOUND,Individualschool_Oglesby_610102.pdf,07/01/2016,,,,
610103,OKEEFFE,"6940 S MERRILL AVE, CHICAGO, IL 60649",41.768602,-87.572806,NO LEAD FOUND,Individualschool_Okeeffe_610103.pdf,07/01/2016,,,,
610104,ONAHAN,"6634 W RAVEN ST, CHICAGO, IL 60631",41.99379,-87.793108,LEAD FOUND,Individualschool_Onahan_610104.pdf,07/22/2016,retest_Onahan_610104.pdf,09/06/2016,,
610105,ORIOLE PARK,"5424 N OKETO AVE, CHICAGO, IL 60656",41.978501,-87.812054,NO LEAD FOUND,Individualschool_OriolePark_610105.pdf,06/23/2016,,,,
610329,OROZCO,"1940 W 18TH ST, CHICAGO, IL 60608",41.857755,-87.67521,NO LEAD FOUND,IndividualSchool_Orozco_610329.pdf,10/26/2016,,,,
610389,ORR HS,"730 N PULASKI RD, CHICAGO, IL 60624",41.894449,-87.726166,LEAD FOUND,IndividualSchool_Orr_610389.pdf,11/01/2016,,,,
609950,ORTIZ DE DOMINGUEZ,"3000 S LAWNDALE AVE, CHICAGO, IL 60623",41.838791,-87.71719,NO LEAD FOUND,IndividualSchool_OrtizDeDominguez_609950.pdf,10/26/2016,,,,
610107,OTIS,"525 N ARMOUR ST, CHICAGO, IL 60642",41.891806,-87.665426,NO LEAD FOUND,Individualschool_Otis_610107.pdf,07/22/2016,,,,
610108,OTOOLE,"6550 S SEELEY AVE, CHICAGO, IL 60636",41.774571,-87.674865,NO LEAD FOUND,Individualschool_Otoole_610108.pdf,7/21/16,,,,
610109,OWEN,"8247 S CHRISTIANA AVE, CHICAGO, IL 60652",41.74285,-87.705749,NO LEAD FOUND,IndividualSchool_Owen_610109.pdf,10/25/2016,,,,
609943,OWENS,"12302 S STATE ST, CHICAGO, IL 60628",41.670618,-87.622546,LEAD FOUND,Individualschool_Owens_609943.pdf,07/15/2016,retest_Owens_609943.pdf,08/30/2016,,
610111,PALMER,"5051 N KENNETH AVE, CHICAGO, IL 60630",41.973289,-87.739213,NO LEAD FOUND,IndividualSchool_Palmer_610111.pdf,07/29/16,,,,
610115,PARK MANOR,"7037 S RHODES AVE, CHICAGO, IL 60637",41.766477,-87.611546,NO LEAD FOUND,Individualschool_ParkManor_610115.pdf,8/5/16,,,,
610112,PARKER,6800 S STEWART AVENUE CHICAGO IL 60621,41.77078,-87.634086,NO LEAD FOUND,Individualschool_Parker_610112.pdf,06/15/2016,retest_Parker_610112.pdf,09/28/2016,,
610116,PARKSIDE,"6938 S EAST END AVE, CHICAGO, IL 60649",41.768555,-87.582954,LEAD FOUND,Individualschools_Parkside_610116.pdf,07/13/2016,retest_Parkside_610116.pdf,08/25/2016,,
610117,PASTEUR,"5825 S KOSTNER AVE, CHICAGO, IL 60629",41.786895,-87.732666,NO LEAD FOUND,Individualschool_Pasteur_610117.pdf,07/15/2016,,,,
609680,PAYTON HS,"1034 N WELLS ST, CHICAGO, IL 60610",41.901575,-87.635385,NO LEAD FOUND,IndividualSchool_Payton_609680.pdf,10/21/2016,,,,
610386,PEACE AND EDUCATION HS,"4946 S PAULINA ST, CHICAGO, IL 60609",41.803515,-87.667378,LEAD FOUND,IndividualSchool_PeaceAndEducation_610386.pdf,10/20/16,,,,
610120,PECK,"3826 W 58TH ST, CHICAGO, IL 60629",41.787899,-87.719216,NO LEAD FOUND,IndividualSchool_Peck_610120.pdf,8/1/16,,,,
610122,PEIRCE,1423 W BRYN MAWR AVENUE CHICAGO IL 60660,41.983456,-87.66585,LEAD FOUND,Individualschool_Peirce_610122.pdf,06/15/2016,retest_Peirce_610122.pdf,8/10/16,,
610123,PENN,"1616 S AVERS AVE, CHICAGO, IL 60623",41.858372,-87.722386,LEAD FOUND,Individualschool_Penn_610123.pdf,06/30/2016,retest_Penn_610123.pdf,8/11/16,,
609872,PEREZ,1241 W 19TH STREET CHICAGO IL 60608,41.856029,-87.65798,LEAD FOUND,Individualschool_Perez_609872.pdf,06/15/2016,retest_Perez_609872.pdf,08/24/2016,,
610126,PERSHING,"3200 S CALUMET AVE, CHICAGO, IL 60616",41.836527,-87.618338,NO LEAD FOUND,IndividualSchool_Pershing_610126.pdf,8/1/16,,,,
400066,PERSPECTIVES - MATH & SCI HS,"3663 S WABASH AVE, CHICAGO, IL 60653",41.827784,-87.624788,NO LEAD FOUND,IndividualSchool_PerspectivesMathSci_400066.pdf,10/31/2016,,,,
610127,PETERSON,"5510 N CHRISTIANA AVE, CHICAGO, IL 60625",41.981557,-87.712583,NO LEAD FOUND,IndividualSchool_Peterson_610127.pdf,07/12/2016,,,,
610106,PICCOLO,"1040 N KEELER AVE, CHICAGO, IL 60651",41.90014,-87.731261,NO LEAD FOUND,IndividualSchool_Piccolo_610106.pdf,07/12/2016,,,,
610129,PICKARD,"2301 W 21ST PL, CHICAGO, IL 60608",41.8529,-87.683291,LEAD FOUND,Individualschool_Pickard_610129.pdf,07/11/2016,retest_Pickard_610129.pdf,09/01/2016,,
610013,PILSEN,"1420 W 17TH ST, CHICAGO, IL 60608",41.858849,-87.662209,LEAD FOUND,Individualschool_Pilsen_610013.pdf,07/11/2016,,,,
610130,PIRIE,"650 E 85TH ST, CHICAGO, IL 60619",41.74034,-87.607891,LEAD FOUND,Individualschool_Pirie_610130.pdf,07/22/2016,retest_Pirie_610130.pdf,08/30/2016,,
610131,PLAMONDON,"2642 W 15TH PL, CHICAGO, IL 60608",41.860259,-87.692526,NO LEAD FOUND,IndividualSchool_Plamondon_610131.pdf,10/25/2016,,,,
610132,POE,"10538 S LANGLEY AVE, CHICAGO, IL 60628",41.70263,-87.606419,LEAD FOUND,IndividualSchool_Poe_610132.pdf,10/11/16,,,,
610135,PORTAGE PARK,"5330 W BERTEAU AVE, CHICAGO, IL 60641",41.956988,-87.761007,LEAD FOUND,Individualschool_PortagePark_610135.pdf,07/11/2016,retest_PortagePark_610135.pdf,8/11/16,,
610281,POWELL,"7511 S SOUTH SHORE DR, CHICAGO, IL 60649",41.760332,-87.556789,NO LEAD FOUND,IndividualSchool_Powell_610281.pdf,10/18/16,,,,
610136,PRESCOTT,"1632 W WRIGHTWOOD AVE, CHICAGO, IL 60614",41.928841,-87.669528,NO LEAD FOUND,Individualschool_Prescott_610136.pdf,07/22/2016,,,,
610533,PRIETO,"2231 N CENTRAL AVE, CHICAGO, IL 60639",41.921318,-87.765781,NO LEAD FOUND,IndividualSchool_Prieto_610533.pdf,10/27/2016,,,,
610229,PRITZKER,2009 W SCHILLER STREET CHICAGO IL 60622,41.907053,-87.677761,NO LEAD FOUND,Individualschool_pritzker_610229.pdf,06/15/2016,Retest_Pritzker_610229.pdf,10/21/2016,,
400071,PROVIDENCE ENGLEWOOD,"6515 S ASHLAND AVE, CHICAGO, IL 60636",41.775367,-87.663996,NO LEAD FOUND,IndividualSchool_ProvidenceEnglewood_400071.pdf,11/01/2016,,,,
610137,PRUSSING,"4650 N MENARD AVE, CHICAGO, IL 60630",41.965619,-87.772414,LEAD FOUND,Individualschool_Prussing_610137.pdf,07/14/2016,retest_Prussing_610137.pdf,09/06/2016,,
610138,PULASKI,"2230 W MCLEAN AVE, CHICAGO, IL 60647",41.918486,-87.683801,LEAD FOUND,Individualschool_Pulaski_610138.pdf,07/22/2016,retest_Pulaski_610138.pdf,9/1/2016,,
610139,PULLMAN,"11311 S FORRESTVILLE AVE, CHICAGO, IL 60628",41.688819,-87.609431,LEAD FOUND,IndividualSchool_Pullman_610139.pdf,07/25/2016,retest_Pullman_610139.pdf,09/06/2016,,
609941,RANDOLPH,"7316 S HOYNE AVE, CHICAGO, IL 60636",41.760614,-87.675966,NO LEAD FOUND,Individualschool_Randolph_609941.pdf,07/05/2016,,,,
610141,RAVENSWOOD,4332 N PAULINA STREET CHICAGO IL 60613,41.960746,-87.670922,NO LEAD FOUND,Individualschool_Ravenswood_610141.pdf,06/15/2016,retest_Ravenswood_610141.pdf,09/21/2016,,
610142,RAY,5631 S KIMBARK AVENUE CHICAGO IL 60637,41.792348,-87.594752,NO LEAD FOUND,Individualschool_Ray_610142.pdf,06/15/2016,,,,
610143,REAVIS,"834 E 50TH ST, CHICAGO, IL 60615",41.804174,-87.604925,LEAD FOUND,Individualschool_Reavis_610143.pdf,07/11/2016,retest_Reavis_610143.pdf,08/25/2016,,
610144,REILLY,3650 W SCHOOL STREET CHICAGO IL 60618,41.941094,-87.719541,LEAD FOUND,Individualschool_Reilly_610144.pdf,06/15/2016,retest_Reilly_610144.pdf,09/06/2016,,
610145,REINBERG,"3425 N MAJOR AVE, CHICAGO, IL 60634",41.943019,-87.768983,NO LEAD FOUND,Individualschool_Reinberg_610145.pdf,07/07/2016,,,,
610146,REVERE,1010 E 72ND STREET CHICAGO IL 60619,41.764196,-87.600177,NO LEAD FOUND,Individualschool_Revere_610146.pdf,06/15/2016,,,,
609707,ROBESON HS,"6835 S NORMAL BLVD, CHICAGO, IL 60621",41.769714,-87.637153,LEAD FOUND,IndividualSchool_Robeson_609707.pdf,10/31/2016,,,,
610256,ROBINSON,"4225 S LAKE PARK AVE, CHICAGO, IL 60653",41.817349,-87.599067,LEAD FOUND,Individualschool_Robinson_610256.pdf,07/22/2016,,,,
610147,ROGERS,7345 N WASHTENAW AVENUE CHICAGO IL 60645,42.015265,-87.697185,NO LEAD FOUND,Individualschool_Rogers_610147.pdf,06/15/2016,,,,
400096,ROWE,"1424 N CLEAVER ST, CHICAGO, IL 60642",41.907797,-87.664072,LEAD FOUND,IndividualSchool_Rowe_400096.pdf,07/25/2016,,,,
610308,RUDOLPH,"110 N PAULINA ST, CHICAGO, IL 60612",41.883568,-87.669477,NO LEAD FOUND,IndividualSchool_Rudolph_610308.pdf,8/1/16,,,,
610152,RUGGLES,"7831 S PRAIRIE AVE, CHICAGO, IL 60619",41.751946,-87.618066,NO LEAD FOUND,Individualschool_Ruggles_610152.pdf,7/21/16,,,,
610125,RUIZ,"2410 S LEAVITT ST, CHICAGO, IL 60608",41.848101,-87.680745,NO LEAD FOUND,IndividualSchool_Ruiz_610125.pdf,10/25/2016,,,,
610153,RYDER,"8716 S WALLACE ST, CHICAGO, IL 60620",41.735379,-87.638843,NO LEAD FOUND,Individualschool_Ryder_610153.pdf,07/14/2016,,,,
610342,SABIN,"2216 W HIRSCH ST, CHICAGO, IL 60622",41.906816,-87.68305,NO LEAD FOUND,individualschool_sabin_610342.pdf,10/03/2016,,,,
610250,SALAZAR,"160 W WENDELL ST, CHICAGO, IL 60610",41.901417,-87.633632,LEAD FOUND,IndividualSchool_Salazar_610250.pdf,07/25/2016,retest_Salazar_610250.pdf,09/06/2016,,
610226,SANDOVAL,"5534 S SAINT LOUIS AVE, CHICAGO, IL 60629",41.792346,-87.710987,LEAD FOUND,IndividualSchool_Sandoval_610226.pdf,10/18/16,,,,
610017,SAUCEDO,2850 W 24TH BOULEVARD CHICAGO IL 60623,41.847941,-87.697316,NO LEAD FOUND,Individualschool_Saucedo_610017.pdf,06/15/2016,retest_Saucedo_610017.pdf,09/22/2016,,
610155,SAUGANASH,"6040 N KILPATRICK AVE, CHICAGO, IL 60646",41.991169,-87.745951,NO LEAD FOUND,IndividualSchool_Sauganash_610155.pdf,10/09/16,,,,
610157,SAWYER,"5248 S SAWYER AVE, CHICAGO, IL 60632",41.797498,-87.705006,LEAD FOUND,IndividualSchool_Sawyer_610157.pdf,09/27/2016,,,,
610158,SAYRE,"1850 N NEWLAND AVE, CHICAGO, IL 60707",41.914151,-87.798721,LEAD FOUND,Individualschool_Sayre_610158.pdf,07/22/2016,retest_Sayre_610158.pdf,09/01/2016,,
610159,SCAMMON,"4201 W HENDERSON ST, CHICAGO, IL 60641",41.941678,-87.732179,NO LEAD FOUND,Individualschool_Scammon_610159.pdf,07/22/2016,,,,
610178,SCHMID,"9755 S GREENWOOD AVE, CHICAGO, IL 60628",41.716989,-87.596932,LEAD FOUND,Individualschool_Schmid_610178.pdf,07/22/2016,retest_Schmid_610178.pdf,08/25/2016,,
610165,SCHUBERT,2727 N LONG AVENUE CHICAGO IL 60639,41.930403,-87.76119,NO LEAD FOUND,Individualschool_Schubert_610165.pdf,06/15/2016,,,,
609729,SCHURZ HS,"3601 N MILWAUKEE AVE, CHICAGO, IL 60641",41.946365,-87.735612,LEAD FOUND,IndividualSchool_Schurz_609729.pdf,11/07/2016,,,,
610167,SEWARD,"4600 S HERMITAGE AVE, CHICAGO, IL 60609",41.810333,-87.668772,NO LEAD FOUND,IndividualSchool_Seward_610167.pdf,8/5/16,,,,
610081,SHERIDAN,"533 W 27TH ST, CHICAGO, IL 60616",41.8444,-87.64134,NO LEAD FOUND,Individualschool_Sheridan_610081.pdf,09/27/16,,,,
610172,SHERMAN,"1000 W 52ND ST, CHICAGO, IL 60609",41.799766,-87.650221,LEAD FOUND,Individualschool_Sherman_610172.pdf,07/27/16,retest_Sherman_610172.pdf,08/30/16,,
610173,SHERWOOD,"245 W 57TH ST, CHICAGO, IL 60621",41.7908,-87.632279,NO LEAD FOUND,Individualschool_Sherwood_610173.pdf,07/05/2016,,,,
610174,SHIELDS,"4250 S ROCKWELL ST, CHICAGO IL 60632",41.815909,-87.689647,NO LEAD FOUND,Individualschool_ShieldsJ_610174.pdf,06/15/2016,,,,
610175,SHOESMITH,"1330 E 50TH ST, CHICAGO, IL 60615",41.804294,-87.593905,NO LEAD FOUND,IndividualSchool_Shoesmith_610175.pdf,10/07/16,,,,
610176,SHOOP,"11140 S BISHOP ST, CHICAGO, IL 60643",41.690919,-87.658669,NO LEAD FOUND,Individualschool_Shoop_610176.pdf,07/27/16,,,,
609750,SIMPSON HS,"1321 S PAULINA ST, CHICAGO, IL 60608",41.864365,-87.668722,LEAD FOUND,IndividualSchool_Simpson_609750.pdf,10/20/2016,,,,
610177,SKINNER (WEST),"1260 W ADAMS ST, CHICAGO, IL 60607",41.879103,-87.659419,NO LEAD FOUND,Individualschool_Skinner_610177.pdf,07/14/2016,,,,
610534,SKINNER NORTH,"640 W SCOTT ST, CHICAGO, IL 60610",41.905109,-87.644841,NO LEAD FOUND,individualschool_skinnernorth_610534.pdf,10/03/2016,,,,
609978,SMITH,"744 E 103RD ST, CHICAGO, IL 60628",41.707558,-87.60466,LEAD FOUND,Individualschool_Smith_609978.pdf,07/22/2016,retest_Smith_609978.pdf,08/30/2016,,
610179,SMYSER,"4310 N MELVINA AVE, CHICAGO, IL 60634",41.958868,-87.781975,LEAD FOUND,Individualschool_Smyser_610179.pdf,07/14/2016,retest_Smyser_610179.pdf,09/06/2016,,
610180,SMYTH,"1059 W 13TH ST, CHICAGO, IL 60608",41.865351,-87.653445,LEAD FOUND,Individualschool_Smyth_610180.pdf,06/29/2016,retest_Smyth_610180.pdf,08/30/2016,,
610182,SOLOMON,"6206 N HAMLIN AVE, CHICAGO, IL 60659",41.993942,-87.724043,LEAD FOUND,Individualschool_Solomon_610182.pdf,06/29/2016,retest_Solomon_610182.pdf,8/10/16,,
609990,SOUTH LOOP,"1212 S PLYMOUTH CT, CHICAGO, IL 60605",41.866875,-87.628615,NO LEAD FOUND,Individualschool_Southloop_609990.pdf,07/14/2016,,,,
610530,SOUTH SHORE ES,1415 E 70TH STREET CHICAGO IL 60637,41.767755,-87.590396,NO LEAD FOUND,Individualschool_SouthShore_610530.pdf,06/15/2016,Retest_southshore_610530.pdf,10/21/2016,,
610183,SPENCER,"214 N LAVERGNE AVE, CHICAGO, IL 60644",41.884876,-87.750445,LEAD FOUND,Individualschool_spencer_610183.pdf,06/20/2016,retest_spencer_610183.pdf,8/10/16,,
610184,SPRY ES,"2400 S MARSHALL BLVD, CHICAGO, IL 60623",41.847747,-87.700184,NO LEAD FOUND,IndividualSchool_Spry_610184.pdf,8/1/16,,,,
610339,STAGG,7424 S MORGAN STREET CHICAGO IL 60621,41.758925,-87.649217,NO LEAD FOUND,Individualschool_Stagg_610339.pdf,06/15/2016,retest_Stagg_610339.pdf,09/29/2016,,
609732,STEINMETZ HS,"3030 N MOBILE AVE, CHICAGO, IL 60634",41.935634,-87.783515,NO LEAD FOUND,IndividualSchool_Steinmetz_609732.pdf,10/27/2016,,,,
610548,STEM,"1522 W FILLMORE ST, CHICAGO, IL 60607",41.868576,-87.664969,NO LEAD FOUND,Individualschool_StemMagnet_610548.pdf,09/28/16,,,,
610185,STEVENSON,"8010 S KOSTNER AVE, CHICAGO, IL 60652",41.747107,-87.731666,NO LEAD FOUND,IndividualSchool_Stevenson_610185.pdf,07/29/16,,,,
610163,STOCK,"7507 W BIRCHWOOD AVE, CHICAGO, IL 60631",42.016892,-87.814195,LEAD FOUND,Individualschool_stock_610163.pdf,06/23/2016,retest_stock_610163.pdf,08/30/2016,,
610191,STONE,"6239 N LEAVITT ST, CHICAGO, IL 60659",41.995359,-87.684793,LEAD FOUND,IndividualSchool_Stone_610191.pdf,09/29/2016,,,,
610192,STOWE,"3444 W WABANSIA AVE, CHICAGO, IL 60647",41.911938,-87.713318,LEAD FOUND,Individualschool_Stowe_610192.pdf,07/06/2016,retest_Stowe_610192.pdf,09/06/2016,,
610405,SUDER,"2022 W WASHINGTON BLVD, CHICAGO, IL 60612",41.883215,-87.677636,NO LEAD FOUND,Individualschool_Suder_610405.pdf,06/27/2016,,,,
610194,SUMNER,715 S KILDARE AVENUE CHICAGO IL 60624,41.870828,-87.733524,NO LEAD FOUND,Individualschool_Sumner_610194.pdf,06/15/2016,retest_Sumner_610194.pdf,09/27/2016,,
610195,SUTHERLAND,"10015 S LEAVITT ST, CHICAGO, IL 60643",41.711445,-87.676821,NO LEAD FOUND,IndividualSchool_Sutherland_610195.pdf,09/30/2016,,,,
610196,SWIFT,"5900 N WINTHROP AVE, CHICAGO, IL 60660",41.989139,-87.658296,NO LEAD FOUND,Individualschool_swift_610196.pdf,06/23/2016,,,,
609734,TAFT HS,"6530 W BRYN MAWR AVE, CHICAGO, IL 60631",41.982961,-87.791547,NO LEAD FOUND,IndividualSchool_Taft_609734.pdf,11/01/2016,,,,
610197,TALCOTT,"1840 W OHIO ST, CHICAGO, IL 60622",41.892405,-87.673723,LEAD FOUND,IndividualSchool_Talcott_610197.pdf,07/12/2016,retest_Talcott_610197.pdf,08/25/2016,,
610249,TALMAN,"5450 S TALMAN AVE, CHICAGO, IL 60632",41.794048,-87.690261,NO LEAD FOUND,Individualschool_Talman_610249.pdf,8/5/16,,,,
610279,TANNER,7350 S EVANS AVENUE CHICAGO IL 60619,41.760673,-87.606791,LEAD FOUND,Individualschool_Tanner_610279.pdf,06/15/2016,,,,
610396,TARKINGTON,"3330 W 71ST ST, CHICAGO, IL 60629",41.764407,-87.706445,LEAD FOUND,IndividualSchool_Tarkington_610396.pdf,10/18/16,,,,
610198,TAYLOR,"9912 S AVENUE H, CHICAGO, IL 60617",41.71547,-87.532971,NO LEAD FOUND,Individualschool_Taylor_610198.pdf,07/11/2016,,,,
610506,TEAM HS,"6201 S STEWART AVE, CHICAGO, IL 60621",41.781485,-87.633019,LEAD FOUND,IndividualSchool_TeamHS_610506.pdf,11/02/2016,,,,
610504,THOMAS,3625 S HOYNE AVENUE CHICAGO IL 60609,41.827775,-87.677542,NO LEAD FOUND,Individualschool_Thomas_610504.pdf,06/15/2016,,,,
610200,THORP J,"8914 S BUFFALO AVE, CHICAGO, IL 60617",41.733324,-87.54428,NO LEAD FOUND,Individualschool_ThorpJ_610200.pdf,07/22/2016,,,,
610201,THORP O,"6024 W WARWICK AVE, CHICAGO, IL 60634",41.948571,-87.777631,NO LEAD FOUND,IndividualSchool_ThorpO_610201.pdf,09/29/2016,,,,
609735,TILDEN HS,"4747 S UNION AVE, CHICAGO, IL 60609",41.80751,-87.642966,LEAD FOUND,IndividualSchool_TildenHS_609735.pdf,11/07/2016,,,,
610065,TILL,"6543 S CHAMPLAIN AVE, CHICAGO, IL 60637",41.775424,-87.609357,LEAD FOUND,Individualschool_Till_610065.pdf,07/22/2016,retest_Till_610065.pdf,08/30/2016,,
610202,TILTON,"223 N KEELER AVE, CHICAGO, IL 60624",41.884102,-87.730566,LEAD FOUND,Individualschool_Tilton_610202.pdf,07/18/2016,retest_Tilton_610202.pdf,08/30/2016,,
610203,TONTI,"5815 S HOMAN AVE, CHICAGO, IL 60629",41.787523,-87.708179,LEAD FOUND,Individualschool_Tonti_610203.pdf,06/15/2016,retest_Tonti_610203.pdf,8/10/16,,
609895,TURNER-DREW,"9300 S PRINCETON AVE, CHICAGO, IL 60620",41.725609,-87.630164,NO LEAD FOUND,IndividualSchool_TurnerDrew_609895.pdf,10/25/2016,,,,
610206,TWAIN,"5134 S LOTUS AVE, CHICAGO, IL 60638",41.799046,-87.758928,LEAD FOUND,Individualschool_Twain_610206.pdf,07/22/2016,retest_Twain_610206.pdf,08/25/2016,,
400075,U OF C - DONOGHUE,"707 E 37TH ST, CHICAGO, IL 60653",41.827726,-87.608501,NO LEAD FOUND,IndividualSchool_Donoghue_400075.pdf,07/12/2016,,,,
400077,U OF C - WOODLAWN HS,"6420 S UNIVERSITY AVE, CHICAGO, IL 60637",41.77813,-87.598114,NO LEAD FOUND,IndividualSchool_UofCWoodlawn_400077.pdf,11/08/2016,,,,
610394,UPLIFT HS,"900 W WILSON AVE, CHICAGO, IL 60640",41.965547,-87.652473,NO LEAD FOUND,IndividualSchool_UpliftHS_610394.pdf,11/07/2016,,,,
610207,VANDERPOEL,"9510 S PROSPECT AVE, CHICAGO, IL 60643",41.720817,-87.665559,NO LEAD FOUND,IndividualSchool_Vanderpoel_610207.pdf,10/25/2016,,,,
609871,VICK,2554 W 113TH STREET CHICAGO IL 60655,41.688191,-87.685677,NO LEAD FOUND,Individualschool_Vick_609871.pdf,06/15/2016,,,,
610518,VOISE HS,"231 N PINE AVE, CHICAGO, IL 60644",41.885993,-87.761916,LEAD FOUND,IndividualSchool_Voise_610518.pdf,10/18/16,,,,
610209,VOLTA,"4950 N AVERS AVE, CHICAGO, IL 60625",41.971634,-87.724605,NO LEAD FOUND,IndividualSchool_Volta_610209.pdf,07/29/16,,,,
610039,VON LINNE,3221 N SACRAMENTO AVENUE CHICAGO IL 60618,41.940009,-87.702635,NO LEAD FOUND,Individualschool_VonLinne_610039.pdf,06/15/2016,,,,
609737,VON STEUBEN HS,"5039 N KIMBALL AVE, CHICAGO, IL 60625",41.973185,-87.713386,LEAD FOUND,IndividualSchool_VonSteuben_609737.pdf,10/21/2016,,,,
610366,WACKER,"9746 S MORGAN ST, CHICAGO, IL 60643",41.716193,-87.648044,NO LEAD FOUND,Individualschool_Wacker_610366.pdf,07/22/2016,,,,
610213,WADSWORTH,"6650 S ELLIS AVE, CHICAGO, IL 60637",41.773478,-87.601018,NO LEAD FOUND,Individualschool_Wadsworth_610213.pdf,06/27/2016,,,,
610216,WALSH,"2015 S PEORIA ST, CHICAGO, IL 60608",41.854836,-87.648086,NO LEAD FOUND,IndividualSchool_Walsh_610216.pdf,10/26/2016,,,,
610217,WARD J,"2701 S SHIELDS AVE, CHICAGO, IL 60616",41.84398,-87.635356,NO LEAD FOUND,Individualschool_WardJ_610217.pdf,07/15/2016,,,,
610133,WARD L,"646 N LAWNDALE AVE, CHICAGO, IL 60624",41.893236,-87.718797,NO LEAD FOUND,Individualschool_WardL_610133.pdf,07/14/2016,,,,
610218,WARREN,"9239 S JEFFERY AVE, CHICAGO, IL 60617",41.726763,-87.575353,LEAD FOUND,Individualschool_Warren_610218.pdf,07/22/2016,,,,
610219,WASHINGTON G,"3611 E 114TH ST, CHICAGO, IL 60617",41.688131,-87.536015,LEAD FOUND,Individualschool_WashingtonG_610219.pdf,07/05/2016,retest_WashingtonG_610219.pdf,8/10/16,,
610124,WASHINGTON H ES,9130 S UNIVERSITY AVENUE CHICAGO IL 60619,41.728534,-87.596257,NO LEAD FOUND,Individualschool_Washington_610124.pdf,06/15/2016,retest_Washington_610124.pdf,09/21/2016,,
609739,WASHINGTON HS,"3535 E 114TH ST, CHICAGO, IL 60617",41.688137,-87.53757,LEAD FOUND,IndividualSchool_WashingtonGHS_609739.pdf,10/21/2016,,,,
610220,WATERS,"4540 N CAMPBELL AVE, CHICAGO, IL 60625",41.964365,-87.691333,NO LEAD FOUND,IndividualSchool_Waters_610220.pdf,09/29/2016,,,,
610221,WEBSTER,4055 W ARTHINGTON STREET CHICAGO IL 60624,41.869916,-87.727524,NO LEAD FOUND,Individualschool_Webster_610221.pdf,06/15/2016,retest_Webster_610221.pdf,09/27/2016,,
610110,WELLS ES,"249 E 37TH ST, CHICAGO, IL 60653",41.827355,-87.61978,LEAD FOUND,IndividualSchool_Wells_610110.pdf,07/12/2016,Retest_Wells_610110.pdf,08/30/2016,,
609740,WELLS HS,"936 N ASHLAND AVE, CHICAGO, IL 60622",41.898995,-87.667483,LEAD FOUND,IndividualSchool_WellsHS_609740.pdf,10/19/2016,,,,
610223,WENTWORTH,1340 W 71ST STREET CHICAGO IL 60636,41.765076,-87.658205,LEAD FOUND,Individualschool_Wentworth_610223.pdf,06/15/2016,retest_Wentworth_610223.pdf,09/06/2016,,
610100,WEST PARK,"1425 N TRIPP AVE, CHICAGO, IL 60651",41.906907,-87.732443,LEAD FOUND,IndividualSchool_WestPark_610100.pdf,10/05/2016,,,,
610542,WEST RIDGE,"6700 N WHIPPLE ST, CHICAGO, IL 60645",42.002959,-87.705917,LEAD FOUND,IndividualSchool_WestRidge_610542.pdf,10/21/2016,,,,
610300,WESTCOTT,409 W 80TH STREET CHICAGO IL 60620,41.748868,-87.634751,NO LEAD FOUND,Individualschool_Westcott_610300.pdf,06/15/2016,Retest_Westcott_610300.pdf,10/21/2016,,
610225,WHISTLER,"11533 S ADA ST, CHICAGO, IL 60643",41.683907,-87.655384,NO LEAD FOUND,IndividualSchool_Whistler_610225.pdf,8/1/16,,,,
610315,WHITE,"1136 W 122ND ST, CHICAGO, IL 60643",41.672309,-87.650539,NO LEAD FOUND,Individualschool_White_610315.pdf,07/22/2016,,,,
610227,WHITNEY,"2815 S KOMENSKY AVE, CHICAGO, IL 60623",41.84008,-87.725546,NO LEAD FOUND,Individualschool_Whitney_610227.pdf,06/29/2016,,,,
610228,WHITTIER,1900 W 23RD STREET CHICAGO IL 60608,41.850481,-87.673392,NO LEAD FOUND,Individualschool_whittier_610228.pdf,06/15/2016,,,,
610230,WILDWOOD,"6950 N HIAWATHA AVE, CHICAGO, IL 60646",42.007491,-87.778345,NO LEAD FOUND,IndividualSchool_Wildwood_610230.pdf,10/21/2016,,,,
610380,WILLIAMS HS,"4934 S WABASH AVE, CHICAGO, IL 60615",41.806118,-87.62503,LEAD FOUND,IndividualSchool_Williams_610380.pdf,10/20/2016,,,,
609977,WOODLAWN,"6657 S KIMBARK AVE, CHICAGO, IL 60637",41.773366,-87.594392,LEAD FOUND,IndividualSchool_Woodlawn_609977.pdf,07/08/2016,retest_Woodlawn_609977.pdf,08/30/2016,,
610345,WOODSON,"4414 S EVANS AVE, CHICAGO, IL 60653",41.814499,-87.608419,LEAD FOUND,Individualschool_Woodson_610345.pdf,07/27/16,retest_Woodson_610345.pdf,09/06/16,,
610234,YATES,"1839 N RICHMOND ST, CHICAGO, IL 60647",41.915039,-87.70028,NO LEAD FOUND,IndividualSchool_Yates_610234.pdf,07/29/16,,,,
610235,YOUNG ES,"1434 N PARKSIDE AVE, CHICAGO, IL 60651",41.906791,-87.767143,LEAD FOUND,IndividualSchool_Young_610235.pdf,07/12/2016,retest_Young_610235.pdf,08/25/2016,,
609755,YOUNG HS,"211 S LAFLIN ST, CHICAGO, IL 60607",41.878603,-87.664233,LEAD FOUND,IndividualSchool_YoungHS_ 609755.pdf,10/28/2016,,,,
400087,YOUNG WOMENS HS,"2641 S CALUMET AVE, CHICAGO, IL 60616",41.844544,-87.618724,NO LEAD FOUND,IndividualSchool_YoungWomensHS_400087.pdf,11/07/2016,,,,
609973,ZAPATA,"2728 S KOSTNER AVE, CHICAGO, IL 60623",41.841394,-87.734313,LEAD FOUND,Individualschool_Zapata_609973.pdf,07/05/2016,Retest_Zapata_609973.pdf,08/30/2016,,
610245,DOUGLASS HS,"543 N WALLER AVE, CHICAGO, IL 60644",41.890369,-87.767668,LEAD FOUND,IndividualSchool_DouglassHS_610245.pdf,11/09/2016,,,,
610323,BOWEN HS,"2710 E 89TH ST, CHICAGO, IL 60617",41.734627,-87.55755,NO LEAD FOUND,IndividualSchool_BowenHS_610323.pdf,11/09/2016,,,,
400091,CHICAGO TECH HS,"1301 W 14TH ST, CHICAGO, IL 60608",41.863301,-87.659095,NO LEAD FOUND,IndividualSchool_ChicagoTechHS_400091.pdf,11/09/2016,,,,
609713,HYDE PARK HS,"6220 S STONY ISLAND AVE, CHICAGO, IL 60637",41.782257,-87.586615,NO LEAD FOUND,IndividualSchool_HydeParkHS_609713.pdf,11/09/2016,,,,
400106,NOBLE - JOHNSON HS,"6350 S STEWART AVE, CHICAGO, IL 60621",41.778369,-87.635117,NO LEAD FOUND,IndividualSchool_NobleJohnson_400106.pdf,11/09/2016,,,,
610334,RABY HS,"3545 W FULTON BLVD, CHICAGO, IL 60624",41.88621,-87.715423,LEAD FOUND,IndividualSchool_RabyHS_610334.pdf,11/09/2016,,,,
609746,KENWOOD HS,"5015 S BLACKSTONE AVE, CHICAGO, IL 60615",41.803772,-87.590421,NO LEAD FOUND,IndividualSchool_KenwoodHS_609746.pdf,11/10/2016,,,,
400061,PERSPECTIVES - LEADERSHIP HS,"8131 S MAY ST, CHICAGO, IL 60620",41.745961,-87.652045,LEAD FOUND,IndividualSchool_PerspectiveLeadership_400061.pdf,11/10/2016,,,,
609730,SENN HS,"5900 N GLENWOOD AVE, CHICAGO, IL 60660",41.989029,-87.667136,NO LEAD FOUND,IndividualSchool_Senn_609730.pdf,11/10/2016,,,,
609723,MARSHALL HS,"3250 W ADAMS ST, CHICAGO, IL 60624",41.878444,-87.70805,NO LEAD FOUND,IndividualSchool_MarshallHS_609723.pdf,11/14/2016,,,,
609682,RICHARDS HS,"5009 S LAFLIN ST, CHICAGO, IL 60609",41.802881,-87.662278,NO LEAD FOUND,IndividualSchool_RichardsHS_609682.pdf,11/14/2016,,,,
609716,KELVYN PARK HS,"4343 W WRIGHTWOOD AVE, CHICAGO, IL 60639",41.927918,-87.735999,NO LEAD FOUND,IndividualSchool_KelvynParkHS_609716.pdf,11/14/2016,,,,
609726,BROOKS HS,"250 E 111TH ST, CHICAGO, IL 60628",41.692763,-87.616353,NO LEAD FOUND,IndividualSchool_BrooksHS_609726.pdf,11/14/2016,,,,
400097,NOBLE - BULLS HS,"2040 W ADAMS ST, CHICAGO, IL 60612",41.878809,-87.678195,NO LEAD FOUND,IndividualSchool_NobleBulls_400097.pdf,11/14/2016,,,,
609727,PHILLIPS HS,"244 E PERSHING RD, CHICAGO, IL 60653",41.82388,-87.619796,NO LEAD FOUND,IndividualSchool_PhillipsHS_609727.pdf,11/14/2016,,,,
609728,ROOSEVELT HS,"3436 W WILSON AVE, CHICAGO, IL 60625",41.964828,-87.714819,LEAD FOUND,IndividualSchool_RooseveltHS_609728.pdf,11/14/2016,,,,
609705,FENGER HS,"11220 S WALLACE ST, CHICAGO, IL 60628",41.689951,-87.637572,LEAD FOUND,IndividualSchool_FengerHS_609705.pdf,11/15/2016,,,,
609712,HIRSCH HS,"7740 S INGLESIDE AVE, CHICAGO, IL 60619",41.753748,-87.601727,NO LEAD FOUND,IndividualSchool_HirschHS_609712.pdf,11/15/2016,,,,
610215,MADERO,"3202 W 28TH ST, CHICAGO, IL 60623",41.840957,-87.705064,LEAD FOUND,IndividualSchool_Madero_610215.pdf,11/15/2016,,,,
609766,VAUGHN HS,"4355 N LINDER AVE, CHICAGO, IL 60641",41.960364,-87.764663,NO LEAD FOUND,IndividualSchool_VaughnHS_609766.pdf,11/15/2016,,,,
609711,HARPER HS,"6520 S WOOD ST, CHICAGO, IL 60636",41.775124,-87.669089,LEAD FOUND,IndividualSchool_HarperHS_609711.pdf,11/16/2016,,,,
609780,MARINE LEADERSHIP AT AMES HS,"1920 N HAMLIN AVE, CHICAGO, IL 60647",41.916045,-87.721742,NO LEAD FOUND,IndividualSchool_MarineLeadershipAmes_609780.pdf,11/16/2016,,,,
400057,NOBLE - UIC HS,"1231 S DAMEN AVE, CHICAGO, IL 60608",41.865817,-87.676111,NO LEAD FOUND,IndividualSchool_NobleUIC_400057.pdf,11/16/2016,,,,
609733,SULLIVAN HS,"6631 N BOSWORTH AVE, CHICAGO, IL 60626",42.002688,-87.669192,NO LEAD FOUND,IndividualSchool_SullivanHS_609733.pdf,11/16/2016,,,,
609693,WESTINGHOUSE HS,"3223 W FRANKLIN BLVD, CHICAGO, IL 60624",41.889977,-87.707332,LEAD FOUND,IndividualSchool_WestinghouseHS_609693.pdf,11/16/2016,,,,
610304,PHOENIX MILITARY HS,"145 S CAMPBELL AVE, CHICAGO, IL 60612",41.879118,-87.68696,LEAD FOUND,IndividualSchool_PhoenixMilitary_610304.pdf,11/17/2016,,,,
610392,WORLD LANGUAGE HS,"3120 S KOSTNER AVE, CHICAGO, IL 60623",41.834397,-87.735292,LEAD FOUND,IndividualSchool_WorldLanguageHS_610392.pdf,11/17/2016,,,,
610563,BACK OF THE YARDS HS,"2111 W 47TH ST, CHICAGO, IL 60609",41.808413,-87.677541,NO LEAD FOUND,IndividualSchool_BackOfTheYardsHS_610563.pdf,11/21/2016,,,,
610561,CRANE MEDICAL HS,"2245 W JACKSON BLVD, CHICAGO, IL 60612",41.876947,-87.683301,NO LEAD FOUND,IndividualSchool_CraneMedical_610561.pdf,11/21/2016,,,,
610558,GOODE HS,"7651 S HOMAN AVE, CHICAGO, IL 60652",41.75375,-87.707345,NO LEAD FOUND,IndividualSchool_GoodeHS_610558.pdf,11/21/2016,,,,
609691,NORTH-GRAND HS,"4338 W WABANSIA AVE, CHICAGO, IL 60639",41.911674,-87.735238,NO LEAD FOUND,IndividualSchool_NorthGrand_609691.pdf,11/21/2016,,,,
609679,PROSSER HS,"2148 N LONG AVE, CHICAGO, IL 60639",41.920059,-87.761048,NO LEAD FOUND,IndividualSchool_ProsserHS_609679.pdf,11/21/2016,,,,
610532,HERNANDEZ,"3510 W 55TH ST, CHICAGO, IL 60632",41.793479,-87.71137,NO LEAD FOUND,IndividualSchool_Hernandez_610532.pdf,11/22/2016,,,,
400017,ASPIRA - HAUGAN,"3729 W LELAND AVE, CHICAGO, IL 60625",41.966406,-87.721825,NO LEAD FOUND,IndividualSchool_AspiraHaugan_400017.pdf,11/23/2016,,,,
609754,CHICAGO MILITARY HS,"3519 S GILES AVE, CHICAGO, IL 60653",41.830555,-87.619216,NO LEAD FOUND,IndividualSchool_ChicagoMilitaryHS_609754.pdf,11/23/2016,,,,
